Bin,House Number,Street Name,Zip,Community Board,Borough Name,Block,Lot,LONGITUDE_POINT_X,LATITUDE_POINT_Y
1004109,68,CLINTON STREET,10002,103,Manhattan,344,138,-73.98474884,40.71924973
1004117,175,STANTON STREET,10002,103,Manhattan,344,150,-73.98428345,40.71995926
1004360,298,EAST 3 STREET,10009,103,Manhattan,372,22,-73.97960663,40.72100067
1004483,268,EAST 7 STREET,10009,103,Manhattan,376,26,-73.97741699,40.7232399
1004610,37,AVENUE B,10009,103,Manhattan,386,1,-73.98262787,40.72269058
1005581,276,GRAND STREET,10002,103,Manhattan,418,56,-73.99266815,40.71802902
1005896,158,1 AVENUE,10009,103,Manhattan,437,6,-73.98430634,40.72843933
1005898,162,1 AVENUE,10009,103,Manhattan,437,8,-73.98428345,40.72858047
1005994,444,EAST 13 STREET,10009,103,Manhattan,440,30,-73.98148346,40.72974014
1006380,143,1 AVENUE,10003,103,Manhattan,450,30,-73.98529816,40.72816849
1006383,79,ST MARKS PLACE,10003,103,Manhattan,450,35,-73.98555756,40.72789001
1006455,163,1 AVENUE,10003,103,Manhattan,452,37,-73.98468781,40.72901154
1006594,75,2 AVENUE,10003,103,Manhattan,460,39,-73.9895401,40.7265892
1006907,221,2 AVENUE,10003,103,Manhattan,469,33,-73.98552704,40.73215103
1007074,62,GRAND STREET,10013,102,Manhattan,475,32,-74.00325775,40.72237015
1007481,24,PRINCE STREET,10012,102,Manhattan,493,16,-73.99465179,40.72269058
1007496,231,MOTT STREET,10012,102,Manhattan,494,24,-73.99533844,40.72264099
1010282,14,GAY STREET,10014,102,Manhattan,593,48,-74.00055695,40.73365021
1013027,328,WEST 15 STREET,10011,104,Manhattan,738,56,-74.00335693,40.74079132
1013980,152,7 AVENUE,10011,104,Manhattan,769,34,-73.99765015,40.74185944
1014113,229,WEST 22 STREET,10011,104,Manhattan,772,30,-73.99690247,40.74399948
1014295,208,WEST 30 STREET,10001,105,Manhattan,779,49,-73.99324799,40.74856949
1015015,763,6 AVENUE,10010,104,Manhattan,801,40,-73.99191284,40.74457932
1015064,145,WEST 27 STREET,10001,105,Manhattan,803,7503,-73.9927063,40.74641037
1015092,136,WEST 28 STREET,10001,105,Manhattan,803,60,-73.99223328,40.746521
1015810,23,WEST 31 STREET,10001,105,Manhattan,833,27,-73.98710632,40.74726868
1016986,15,EAST 31 STREET,10016,105,Manhattan,861,7501,-73.98480225,40.7462883
1025018,334,WEST 46 STREET,10036,104,Manhattan,1036,47,-73.98937988,40.76015091
1032025,123,WEST 81 STREET,10024,107,Manhattan,1212,25,-73.97515869,40.78377914
1032123,162,WEST 84 STREET,10024,107,Manhattan,1214,61,-73.97576141,40.78614044
1033649,698,AMSTERDAM AVENUE,10025,107,Manhattan,1241,35,-73.97176361,40.79270935
1033650,200,WEST 94 STREET,10025,107,Manhattan,1241,36,-73.97170258,40.79278183
1038476,981,2 AVENUE,10022,106,Manhattan,1325,31,-73.96794128,40.75614929
1038764,838,2 AVENUE,10017,106,Manhattan,1337,51,-73.97070313,40.75141144
1046666,23,EAST 81 STREET,10028,108,Manhattan,1493,7506,-73.96148682,40.77801895
1049952,1626,2 AVENUE,10028,108,Manhattan,1547,2,-73.95230865,40.77661133
1051941,1642,LEXINGTON AVENUE,10029,111,Manhattan,1631,56,-73.9475708,40.79092026
1051972,168,EAST 105 STREET,10029,111,Manhattan,1632,44,-73.94605255,40.79101944
1052200,160,EAST 111 STREET,10029,111,Manhattan,1638,148,-73.94365692,40.79507065
1052247,171,EAST 115 STREET,10029,111,Manhattan,1643,29,-73.94120026,40.79777908
1052262,1863,LEXINGTON AVENUE,10029,111,Manhattan,1643,52,-73.94164276,40.79832077
1052271,110,EAST  116 STREET,10029,111,Manhattan,1643,7502,-73.94275665,40.79880142
1052332,101,EAST 117 STREET,10035,111,Manhattan,1645,1,-73.94229126,40.79996109
1052467,2145,   2 AVENUE,10029,111,Manhattan,1660,23,-73.9406662,40.79352188
1052837,2121,1 AVENUE,10029,111,Manhattan,1681,23,-73.93885803,40.79177094
1052924,322,EAST 116 STREET,10029,111,Manhattan,1687,41,-73.93688965,40.79632187
1053037,273,PLEASANT AVENUE,10029,111,Manhattan,1708,124,-73.93415833,40.79417038
1053056,432,EAST 116 STREET,10029,111,Manhattan,1709,35,-73.93437958,40.79526138
1054016,14,EAST 125 STREET,10035,111,Manhattan,1749,64,-73.94164276,40.80583954
1054207,2081,5 AVENUE,10035,111,Manhattan,1753,102,-73.94042969,40.80841827
1054246,2056,MADISON AVENUE,10035,111,Manhattan,1754,58,-73.93863678,40.80891037
1054328,2093,MADISON AVENUE,10037,111,Manhattan,1756,50,-73.93727112,40.8098793
1054342,2153,5 AVENUE,10037,111,Manhattan,1756,72,-73.93894958,40.81042099
1054648,2411,2 AVENUE,10035,111,Manhattan,1788,27,-73.93453217,40.80197906
1054710,329,EAST 118 STREET,10035,111,Manhattan,1795,16,-73.93538666,40.79795074
1054858,406,EAST  119 STREET,10035,111,Manhattan,1806,145,-73.93367767,40.79763031
1054948,143,WEST 111 STREET,10026,110,Manhattan,1821,9,-73.95387268,40.79986954
1054981,123,WEST 112 STREET,10026,110,Manhattan,1822,15,-73.95285034,40.80014038
1055008,60,ST NICHOLAS AVENUE,10026,110,Manhattan,1823,18,-73.9521637,40.80080032
1055052,120,WEST 116 STREET,10026,110,Manhattan,1825,45,-73.95111847,40.80231094
1057558,191,LENOX AVENUE,10026,110,Manhattan,1904,33,-73.94838715,40.80445099
1057688,231,LENOX AVENUE,10027,110,Manhattan,1906,33,-73.94747162,40.80569839
1057803,144,WEST  124 STREET,10027,110,Manhattan,1908,52,-73.94780731,40.807621
1058117,158,WEST 132 STREET,10027,110,Manhattan,1916,55,-73.94432831,40.81280899
1058118,162,WEST 132 STREET,10027,110,Manhattan,1916,56,-73.94445801,40.81285858
1058427,200,WEST 119 STREET,10026,110,Manhattan,1924,36,-73.95157623,40.80522156
1058485,208,ST NICHOLAS AVENUE,10027,110,Manhattan,1926,61,-73.95263672,40.80720139
1058491,222,ST NICHOLAS AVENUE,10027,110,Manhattan,1927,2,-73.95259857,40.80764008
1058532,244,WEST  122 STREET,10027,110,Manhattan,1927,58,-73.95202637,40.80775833
1058893,2302,7 AVENUE,10030,110,Manhattan,1941,30,-73.94393921,40.81567001
1059005,361,WEST 116 STREET,10026,110,Manhattan,1943,11,-73.9570694,40.80545044
1059163,63,MORNINGSIDE AVENUE,10027,110,Manhattan,1947,64,-73.9557724,40.8083992
1059530,467,WEST 125 STREET,10027,109,Manhattan,1966,38,-73.95575714,40.81327057
1059624,1437,AMSTERDAM AVENUE,10027,109,Manhattan,1970,34,-73.95371246,40.81632996
1059691,543,WEST 125 STREET,10027,109,Manhattan,1982,5,-73.95717621,40.81489944
1059808,528,WEST 136 STREET,10031,109,Manhattan,1988,127,-73.9537735,40.82017899
1060413,2400,7 AVENUE,10030,110,Manhattan,2026,29,-73.94164276,40.81882095
1060498,269,WEST 146 STREET,10039,110,Manhattan,2032,7,-73.94062042,40.82341003
1060525,283,WEST 147 STREET,10039,110,Manhattan,2033,11,-73.93985748,40.82389832
1060661,315,WEST 138 STREET,10030,110,Manhattan,2041,40,-73.94576263,40.81893158
1060752,300,WEST 142 STREET,10030,110,Manhattan,2043,18,-73.9437027,40.82094955
1060854,301,WEST 150 STREET,10039,110,Manhattan,2046,7,-73.93979645,40.82632828
1060864,2843,8 AVENUE,10039,110,Manhattan,2046,32,-73.93919373,40.82709122
1061188,76,ST NICHOLAS PLACE,10032,109,Manhattan,2054,79,-73.94043732,40.82939148
1061189,66,ST NICHOLAS PLACE,10032,109,Manhattan,2054,82,-73.94064331,40.82912064
1061246,1661,AMSTERDAM AVENUE,10031,109,Manhattan,2058,29,-73.94867706,40.82342148
1061295,468,WEST 144 STREET,10031,109,Manhattan,2059,27,-73.94779205,40.8241806
1061775,572,WEST 141 STREET,10031,109,Manhattan,2072,59,-73.95191193,40.82347107
1061930,533,WEST 145 STREET,10031,109,Manhattan,2077,10,-73.94927216,40.82624054
1061931,531,WEST 145 STREET,10031,109,Manhattan,2077,12,-73.94917297,40.82619858
1061944,1730,AMSTERDAM AVENUE,10031,109,Manhattan,2077,34,-73.94754791,40.82579041
1061977,519,WEST  147 STREET,10031,109,Manhattan,2079,19,-73.9477005,40.82722092
1062020,539,WEST 148 STREET,10031,109,Manhattan,2080,14,-73.94760895,40.82799149
1062022,535,WEST 148 STREET,10031,109,Manhattan,2080,16,-73.94748688,40.82793045
1062172,521,WEST 150 STREET,10031,109,Manhattan,2082,120,-73.94618988,40.82902145
1062318,613,WEST 140 STREET,10031,109,Manhattan,2088,19,-73.95374298,40.82390976
1062599,425,WEST 162 STREET,10032,112,Manhattan,2110,41,-73.93817139,40.83536911
1062647,470,WEST 166 STREET,10032,112,Manhattan,2111,50,-73.93771362,40.83823013
1062752,538,WEST 159 STREET,10032,112,Manhattan,2117,17,-73.94296265,40.8346405
1062785,560,WEST 160 STREET,10032,112,Manhattan,2118,11,-73.94294739,40.83544922
1062823,580,WEST 161 STREET,10032,112,Manhattan,2119,5,-73.94280243,40.83620071
1062824,576,WEST 161 STREET,10032,112,Manhattan,2119,12,-73.94252777,40.83609009
1062917,531,WEST 162 STREET,10032,112,Manhattan,2122,13,-73.940979,40.83673859
1062932,546,WEST 165 STREET,10032,112,Manhattan,2122,82,-73.94051361,40.83853149
1062936,548,WEST 164 STREET,10032,112,Manhattan,2122,110,-73.94064331,40.83774185
1063171,2304,AMSTERDAM AVENUE,10033,112,Manhattan,2131,48,-73.93434143,40.84394836
1063218,580,WEST 176 STREET,10033,112,Manhattan,2133,10,-73.93562317,40.84568024
1063235,1356,ST NICHOLAS AVENUE,10033,112,Manhattan,2133,66,-73.93495941,40.84708023
1063319,638,WEST 160 STREET,10032,112,Manhattan,2136,60,-73.94554901,40.83654022
1063323,645,WEST 160 STREET,10032,112,Manhattan,2136,90,-73.94521332,40.8368988
1063572,650,WEST 177 STREET,10033,112,Manhattan,2145,47,-73.93723297,40.847229
1063573,82,WADSWORTH AVENUE,10033,112,Manhattan,2145,49,-73.93731689,40.8470993
1063599,508,WEST 180 STREET,10033,112,Manhattan,2152,41,-73.93232727,40.84756851
1063662,350,AUDUBON AVENUE,10033,112,Manhattan,2154,52,-73.93179321,40.84976959
1063766,552,WEST 185 STREET,10033,112,Manhattan,2157,15,-73.93110657,40.8510704
1063940,620,WEST  182 STREET,10033,112,Manhattan,2165,6,-73.93430328,40.8501091
1064140,108,ELLWOOD STREET,10040,112,Manhattan,2172,39,-73.92954254,40.86151886
1064506,407,WEST 205 STREET,10034,112,Manhattan,2202,31,-73.91854858,40.86286926
1076384,327,EAST  109 STREET,10029,111,Manhattan,1681,14,-73.93965912,40.7922287
1076703,213,WEST  139 STREET,10030,110,Manhattan,2025,24,-73.94254303,40.81837845
1077395,35,MADISON STREET,10038,103,Manhattan,116,46,-73.99893951,40.71207047
1078214,40,HORATIO STREET,10014,102,Manhattan,626,32,-74.00485229,40.73857117
1078758,159,EAST 33 STREET,10016,106,Manhattan,889,32,-73.97921753,40.74555969
1079433,56,EAST  130 STREET,10037,111,Manhattan,1754,46,-73.93781281,40.80842972
1079504,262,WEST  122 STREET,10027,110,Manhattan,1927,59,-73.95217133,40.80781937
1081574,240,WEST  116 STREET,10026,110,Manhattan,1831,53,-73.95455933,40.80376053
1082505,50,DELANCEY STREET,10002,103,Manhattan,420,70,-73.99128723,40.719841
1085042,401,WEST   49 STREET,10019,104,Manhattan,1059,29,-73.98960114,40.76308823
1813359,111,TESTING AVENUE,10001,101,Manhattan,1,1,,
2000031,494,EAST 138 STREET,10454,201,Bronx,2265,3,-73.91992188,40.80754852
2000037,518,EAST 138 STREET,10454,201,Bronx,2265,29,-73.9189682,40.80715179
2000419,418,EAST 143 STREET,10454,201,Bronx,2287,15,-73.91990662,40.81174088
2000588,352,EAST 139 STREET,10454,201,Bronx,2301,11,-73.92385864,40.81015015
2000590,380,EAST 139 STREET,10454,201,Bronx,2301,22,-73.92304993,40.80979919
2000871,340,EAST 148 STREET,10451,201,Bronx,2329,68,-73.92051697,40.81581116
2000872,342,EAST 148 STREET,10451,201,Bronx,2329,69,-73.92043304,40.81578827
2001493,422,EAST 161 STREET,10451,203,Bronx,2382,14,-73.91304016,40.82368088
2001509,430,EAST 162 STREET,10451,203,Bronx,2383,18,-73.91246033,40.82424164
2001588,15,GOUVERNEUR PLACE,10456,203,Bronx,2388,51,-73.90831757,40.82931137
2002005,951,COLLEGE AVENUE,10456,204,Bronx,2423,36,-73.91607666,40.82762146
2002052,1046,CLAY AVENUE,10456,204,Bronx,2425,5,-73.91251373,40.82847977
2002136,1047,CLAY AVENUE,10456,204,Bronx,2428,33,-73.91298676,40.8286705
2002138,1043,CLAY AVENUE,10456,204,Bronx,2428,35,-73.91306305,40.8285408
2002189,312,EAST 165 STREET,10456,204,Bronx,2432,40,-73.91512299,40.82863998
2002224,1056,FINDLAY AVENUE,10456,204,Bronx,2433,46,-73.91417694,40.82913971
2002225,1060,FINDLAY AVENUE,10456,204,Bronx,2433,48,-73.91412354,40.82923126
2002226,1064,FINDLAY AVENUE,10456,204,Bronx,2433,49,-73.91407776,40.829319
2002228,1072,FINDLAY AVENUE,10456,204,Bronx,2433,52,-73.91396332,40.82949829
2002233,1081,TELLER AVENUE,10456,204,Bronx,2433,61,-73.91351318,40.82958984
2002244,1055,TELLER AVENUE,10456,204,Bronx,2433,73,-73.91385651,40.82899094
2002282,1121,TELLER AVENUE,10456,204,Bronx,2434,78,-73.91301727,40.83039093
2002395,1041,COLLEGE AVENUE,10456,204,Bronx,2437,28,-73.91545105,40.82973099
2002436,1237,COLLEGE AVENUE,10456,204,Bronx,2439,69,-73.91300201,40.83388901
2002538,1060,GRANT AVENUE,10456,204,Bronx,2448,10,-73.91663361,40.83024979
2002631,1067,GRANT AVENUE,10456,204,Bronx,2451,30,-73.91709137,40.8305397
2003418,1027,SUMMIT AVENUE,10452,204,Bronx,2523,132,-73.93002319,40.83401871
2003508,1207,OGDEN AVENUE,10452,204,Bronx,2528,28,-73.9267807,40.83805084
2003597,151,BRUCKNER BOULEVARD,10454,201,Bronx,2546,140,-73.91938782,40.80363846
2003933,511,CONCORD AVENUE,10455,201,Bronx,2579,37,-73.90878296,40.81216049
2003945,536,CONCORD AVENUE,10455,201,Bronx,2580,18,-73.90796661,40.81275177
2004268,1133,BOSTON ROAD,10456,203,Bronx,2613,26,-73.90426636,40.82820892
2004336,707,EAGLE AVENUE,10455,201,Bronx,2617,57,-73.91026306,40.81840897
2004363,3198,3 AVENUE,10451,203,Bronx,2620,4,-73.90910339,40.82262039
2004367,3206,3 AVENUE,10451,203,Bronx,2620,8,-73.90895844,40.82284927
2005017,812,EAST 165 STREET,10459,203,Bronx,2678,28,-73.90101624,40.82415009
2005119,673,BECK STREET,10455,202,Bronx,2685,64,-73.90144348,40.81497955
2005194,910,PROSPECT AVENUE,10459,202,Bronx,2690,22,-73.90059662,40.82126999
2005226,865,EAST 164 STREET,10459,202,Bronx,2690,202,-73.89927673,40.82347107
2005230,866,EAST 164 STREET,10459,202,Bronx,2690,206,-73.89929199,40.82313156
2005248,1023,STEBBINS AVENUE,10459,202,Bronx,2691,44,-73.89911652,40.82402039
2005359,941,INTERVALE AVENUE,10459,202,Bronx,2697,45,-73.8972168,40.82130814
2005441,745,KELLY STREET,10455,202,Bronx,2701,47,-73.89940643,40.81718063
2005531,770,BECK STREET,10455,202,Bronx,2707,53,-73.89817047,40.81652069
2005559,740,KELLY STREET,10455,202,Bronx,2708,31,-73.89913177,40.81674957
2005718,1124,FOX STREET,10459,203,Bronx,2719,92,-73.89356995,40.82762146
2005795,1076,FOX STREET,10459,202,Bronx,2726,25,-73.89359283,40.82595062
2005868,925,BRUCKNER BOULEVARD,10459,202,Bronx,2733,24,-73.89292908,40.81861115
2006064,1161,HOE AVENUE,10459,203,Bronx,2745,37,-73.89116669,40.82775879
2006088,1020,FAILE STREET,10459,202,Bronx,2748,7501,-73.88923645,40.82374954
2006096,1036,FAILE STREET,10459,202,Bronx,2748,7501,-73.88928986,40.82429886
2006130,1021,FAILE STREET,10459,202,Bronx,2749,7501,-73.88983154,40.82381058
2006178,1137,VYSE AVENUE,10459,203,Bronx,2752,51,-73.89024353,40.82735825
2006261,1036,LONGFELLOW AVENUE,10459,202,Bronx,2756,69,-73.88741302,40.82435989
2006282,1050,LOWELL STREET,10459,202,Bronx,2757,42,-73.88693237,40.82575989
2006307,1150,LONGFELLOW AVENUE,10459,203,Bronx,2758,13,-73.88770294,40.82780075
2006451,828,FAILE STREET,10474,202,Bronx,2762,84,-73.88704681,40.81776047
2006458,858,FAILE STREET,10474,202,Bronx,2762,94,-73.88723755,40.81848145
2006459,868,FAILE STREET,10474,202,Bronx,2762,95,-73.88736725,40.81864166
2006512,1261,SPOFFORD AVENUE,10474,202,Bronx,2763,107,-73.88780212,40.81457901
2006524,754,MANIDA STREET,10474,202,Bronx,2763,136,-73.88845825,40.81586838
2006595,1202,SPOFFORD AVENUE,10474,202,Bronx,2765,78,-73.89073944,40.81357956
2006689,619,FAILE STREET,10474,202,Bronx,2766,27,-73.88632202,40.81274033
2007116,396,EAST 170 STREET,10456,204,Bronx,2782,109,-73.90820313,40.83687973
2007315,346,EAST 173 STREET,10457,204,Bronx,2790,18,-73.90522003,40.84321976
2007486,1750,TOPPING AVENUE,10457,205,Bronx,2799,11,-73.90543365,40.84542084
2007488,1754,TOPPING AVENUE,10457,205,Bronx,2799,13,-73.90541077,40.84555817
2007489,1756,TOPPING AVENUE,10457,205,Bronx,2799,14,-73.90541077,40.8456192
2007522,1821,TOPPING AVENUE,10457,205,Bronx,2800,44,-73.90582275,40.84719086
2007821,1515,SELWYN AVENUE,10457,204,Bronx,2819,51,-73.91056061,40.84088898
2007868,1665,MORRIS AVENUE,10457,204,Bronx,2824,15,-73.90976715,40.84357834
2007904,1890,WALTON AVENUE,10453,205,Bronx,2827,36,-73.90908051,40.84939957
2007950,2027,MORRIS AVENUE,10453,205,Bronx,2829,57,-73.90637207,40.85266876
2007993,1466,GRAND CONCOURSE,10457,204,Bronx,2832,40,-73.91230774,40.84056091
2008416,1323,INWOOD AVENUE,10452,204,Bronx,2864,73,-73.9201889,40.83893967
2009557,495,CLAREMONT PARKWAY,10457,203,Bronx,2913,43,-73.90187073,40.83879089
2009599,501,EAST 176 STREET,10457,206,Bronx,2924,1,-73.89745331,40.84566879
2009839,1404,CROTONA PARK EAST,10460,203,Bronx,2938,3,-73.896492,40.83432007
2009969,1916,CROTONA AVENUE,10457,206,Bronx,2950,46,-73.89141083,40.8447113
2010167,771,EAST 169 STREET,10456,203,Bronx,2961,13,-73.89940643,40.83095932
2010200,1417,PROSPECT AVENUE,10459,203,Bronx,2962,40,-73.89704895,40.8324585
2010229,797,JENNINGS STREET,10459,203,Bronx,2963,43,-73.89594269,40.83226013
2010348,1338,PROSPECT AVENUE,10459,203,Bronx,2970,11,-73.89716339,40.82950974
2010353,1348,PROSPECT AVENUE,10459,203,Bronx,2970,16,-73.89703369,40.82983017
2010358,820,FREEMAN STREET,10459,203,Bronx,2970,22,-73.89687347,40.83026886
2010459,1234,INTERVALE AVENUE,10459,203,Bronx,2974,9,-73.89425659,40.82886887
2010463,1159,FOX STREET,10459,203,Bronx,2974,22,-73.89399719,40.82854843
2010472,1220,SIMPSON STREET,10459,203,Bronx,2975,5,-73.89260864,40.82913971
2010511,1550,MINFORD PLACE,10460,203,Bronx,2977,139,-73.88980865,40.83525848
2010690,1892,DALY AVENUE,10460,206,Bronx,2992,16,-73.88459015,40.84001923
2010738,1453,BRYANT AVENUE,10459,203,Bronx,2994,25,-73.88839722,40.83148956
2010771,1481,BRYANT AVENUE,10460,203,Bronx,2995,37,-73.88787079,40.83237839
2010842,1460,BRYANT AVENUE,10460,203,Bronx,3000,4,-73.88764954,40.83169937
2010847,1474,BRYANT AVENUE,10460,203,Bronx,3000,10,-73.88742828,40.8320694
2010854,1494,BRYANT AVENUE,10460,203,Bronx,3000,18,-73.88712311,40.83258057
2010880,1552,BRYANT AVENUE,10460,203,Bronx,3001,58,-73.88613129,40.8342514
2010912,1313,WEST FARMS ROAD,10459,203,Bronx,3007,43,-73.88735962,40.82976913
2011050,311,EAST 188 STREET,10458,205,Bronx,3023,98,-73.89476013,40.86082077
2011216,2408,WEBSTER AVENUE,10458,206,Bronx,3032,3,-73.89346313,40.85892868
2011217,2412,WEBSTER AVENUE,10458,206,Bronx,3032,4,-73.89337158,40.85900116
2011298,4418,PARK AVENUE,10457,206,Bronx,3037,37,-73.89581299,40.85277939
2011312,4464,PARK AVENUE,10457,206,Bronx,3037,57,-73.89510345,40.85404968
2012114,2303,HUGHES AVENUE,10458,206,Bronx,3072,23,-73.88806152,40.85303116
2012172,2384,BELMONT AVENUE,10458,206,Bronx,3074,43,-73.88619995,40.8544693
2012297,1980,BELMONT AVENUE,10457,206,Bronx,3079,53,-73.89108276,40.84642029
2012528,2309,BEAUMONT AVENUE,10458,206,Bronx,3089,59,-73.88552094,40.85261154
2012543,2407,BEAUMONT AVENUE,10458,206,Bronx,3090,25,-73.884552,40.85454941
2012546,689,EAST 187 STREET,10458,206,Bronx,3090,31,-73.88490295,40.85446167
2012703,2117,CLINTON AVENUE,10457,206,Bronx,3096,63,-73.88760376,40.84820938
2012766,2166,CROTONA AVENUE,10457,206,Bronx,3098,22,-73.88658142,40.84986877
2012808,2284,BEAUMONT AVENUE,10457,206,Bronx,3101,8,-73.88545227,40.85163879
2012920,2425,CROTONA AVENUE,10458,206,Bronx,3105,49,-73.88346863,40.8548317
2012926,2411,CROTONA AVENUE,10458,206,Bronx,3105,56,-73.88368988,40.85438156
2012953,2048,MAPES AVENUE,10460,206,Bronx,3108,2,-73.88610077,40.84545898
2013064,2440,PROSPECT AVENUE,10458,206,Bronx,3115,17,-73.88189697,40.8547287
2013318,363,EAST 180 STREET,10457,205,Bronx,3143,132,-73.89858246,40.85211945
2013321,2240,TIEBOUT AVENUE,10457,205,Bronx,3143,150,-73.89759064,40.85557938
2013330,386,EAST 184 STREET,10458,205,Bronx,3143,242,-73.89595032,40.85681915
2013481,2483,TIEBOUT AVENUE,10458,205,Bronx,3148,27,-73.89536285,40.86151886
2013532,2098,RYER AVENUE,10457,205,Bronx,3149,80,-73.90039825,40.85334015
2013714,2183,RYER AVENUE,10457,205,Bronx,3157,57,-73.90023804,40.85501862
2013721,2250,GRAND CONCOURSE,10457,205,Bronx,3158,14,-73.89993286,40.85651016
2014282,2349,JEROME AVENUE,10468,207,Bronx,3198,89,-73.90328217,40.85993958
2014603,2328,UNIVERSITY AVENUE,10468,207,Bronx,3212,42,-73.90569305,40.86141968
2014610,2352,UNIVERSITY AVENUE,10468,207,Bronx,3212,55,-73.9050827,40.86209869
2014747,2291,UNIVERSITY AVENUE,10468,207,Bronx,3218,64,-73.90698242,40.8609314
2014854,1920,LORING PLACE,10453,205,Bronx,3221,13,-73.91413879,40.85453033
2014897,1905,ANDREWS AVENUE,10453,205,Bronx,3221,90,-73.9139328,40.85422134
2015099,2241,SEDGWICK AVENUE,10468,207,Bronx,3234,34,-73.91087341,40.86095047
2015106,208,WEST FORDHAM ROAD,10468,207,Bronx,3234,63,-73.90966797,40.86217117
2016405,391,EAST 198 STREET,10458,207,Bronx,3279,1,-73.88598633,40.8664093
2016602,2565,MARION AVENUE,10458,207,Bronx,3286,51,-73.89241028,40.86302185
2016685,2795,MARION AVENUE,10458,207,Bronx,3289,35,-73.88741302,40.86717987
2016844,2674,BRIGGS AVENUE,10458,207,Bronx,3294,23,-73.89186859,40.8657608
2018015,179,EAST MOSHOLU PARKWAY NORTH,10467,207,Bronx,3335,139,-73.88115692,40.87527084
2018316,3143,HULL AVENUE,10467,207,Bronx,3345,36,-73.87754822,40.87327957
2018381,3324,PERRY AVENUE,10467,207,Bronx,3348,13,-73.87457275,40.87760925
2021448,1825,LACOMBE AVENUE,10473,209,Bronx,3523,5,-73.86116028,40.81533051
2021710,1756,SEWARD AVENUE,10473,209,Bronx,3555,38,-73.86533356,40.81861877
2022082,1773,SEWARD AVENUE,10473,209,Bronx,3596,22,-73.86460876,40.81921005
2023435,1041,ELDER AVENUE,10472,209,Bronx,3713,48,-73.87864685,40.82509995
2023437,1037,ELDER AVENUE,10472,209,Bronx,3713,50,-73.87861633,40.82497025
2023522,1040,WARD AVENUE,10472,209,Bronx,3716,21,-73.87619019,40.82522964
2023544,1039,MANOR AVENUE,10472,209,Bronx,3716,50,-73.87581635,40.82527924
2023546,1035,MANOR AVENUE,10472,209,Bronx,3716,52,-73.87579346,40.82514191
2023878,1115,BOYNTON AVENUE,10472,209,Bronx,3740,69,-73.87812042,40.82690048
2024051,1127,FTELEY AVENUE,10472,209,Bronx,3747,65,-73.87151337,40.82780838
2024053,1121,FTELEY AVENUE,10472,209,Bronx,3747,67,-73.87148285,40.82767105
2024076,1138,METCALF AVENUE,10472,209,Bronx,3747,109,-73.87201691,40.82844162
2024164,1125,NOBLE AVENUE,10472,209,Bronx,3749,67,-73.86965942,40.82809067
2024539,1144,WHITE PLAINS ROAD,10472,209,Bronx,3759,24,-73.86102295,40.83005905
2024713,1813,GLEASON AVENUE,10472,209,Bronx,3764,3,-73.86535645,40.83021927
2024785,1838,WESTCHESTER AVENUE,10472,209,Bronx,3765,45,-73.86464691,40.8320694
2024810,1849,GLEASON AVENUE,10472,209,Bronx,3766,6,-73.86369324,40.83044815
2024833,1253,LELAND AVENUE,10472,209,Bronx,3766,55,-73.86377716,40.83182907
2024956,1245,BRONX RIVER AVENUE,10472,209,Bronx,3769,44,-73.88287354,40.82976913
2025056,1238,EVERGREEN AVENUE,10472,209,Bronx,3771,20,-73.881073,40.82978821
2025161,1533,WESTCHESTER AVENUE,10472,209,Bronx,3773,3,-73.87863159,40.82889938
2025162,1531,WESTCHESTER AVENUE,10472,209,Bronx,3773,5,-73.87877655,40.82889175
2025543,1256,NOBLE AVENUE,10472,209,Bronx,3783,12,-73.86987305,40.83148956
2025544,1258,NOBLE AVENUE,10472,209,Bronx,3783,13,-73.86988068,40.83155823
2026319,2147,BRUCKNER BOULEVARD,10472,209,Bronx,3806,59,-73.85112762,40.82767868
2026478,2136,GLEASON AVENUE,10462,209,Bronx,3811,18,-73.8526535,40.83150101
2027393,1319,ELDER AVENUE,10472,209,Bronx,3862,36,-73.88020325,40.83174133
2027502,1310,STRATFORD AVENUE,10472,209,Bronx,3867,10,-73.87589264,40.83208847
2027571,1311,HARROD AVENUE,10472,209,Bronx,3868,62,-73.87461853,40.8323288
2027761,1361,ROSEDALE AVENUE,10472,209,Bronx,3873,42,-73.87014771,40.83430099
2027866,1302,ST LAWRENCE AVENUE,10472,209,Bronx,3876,6,-73.86727905,40.83295822
2028281,1421,LELAND AVENUE,10460,209,Bronx,3901,59,-73.8645401,40.83605957
2028427,1523,ROSEDALE AVENUE,10460,209,Bronx,3913,44,-73.87037659,40.83855057
2028526,1528,ROSEDALE AVENUE,10460,209,Bronx,3917,13,-73.86979675,40.83884048
2028527,1530,ROSEDALE AVENUE,10460,209,Bronx,3917,14,-73.86979675,40.83890152
2042428,1123,EAST TREMONT AVENUE,10460,206,Bronx,4004,9,-73.87624359,40.8401413
2042528,1731,VAN BUREN STREET,10460,211,Bronx,4016,19,-73.87110138,40.84178925
2042547,1720,ADAMS STREET,10460,211,Bronx,4016,43,-73.87091827,40.84119034
2042638,1711,TAYLOR AVENUE,10460,211,Bronx,4020,26,-73.86921692,40.84220886
2042713,540,VAN NEST AVENUE,10460,211,Bronx,4022,7,-73.86940765,40.84135056
2052115,2551,HERING AVENUE,10469,211,Bronx,4457,61,-73.85414886,40.86452103
2053737,2715,BARNES AVENUE,10467,211,Bronx,4512,56,-73.86377716,40.86608124
2055638,3028,WALLACE AVENUE,10467,212,Bronx,4571,16,-73.86401367,40.87046051
2055662,805,ADEE AVENUE,10467,212,Bronx,4572,7,-73.86313629,40.86986923
2055669,3018,BARNES AVENUE,10467,212,Bronx,4572,16,-73.86308289,40.87044907
2055756,3038,BRONXWOOD AVENUE,10469,212,Bronx,4574,21,-73.86103821,40.8707695
2055847,3015,PAULDING AVENUE,10469,212,Bronx,4576,48,-73.85888672,40.87010956
2055849,3011,PAULDING AVENUE,10469,212,Bronx,4576,51,-73.85890198,40.86997986
2056251,3233,CRUGER AVENUE,10467,212,Bronx,4596,46,-73.8664093,40.87239075
2056280,3209,WALLACE AVENUE,10467,212,Bronx,4598,24,-73.8645401,40.87184143
2057080,3311,COLDEN AVENUE,10469,212,Bronx,4634,35,-73.85964966,40.87350845
2057729,739,TILDEN STREET,10467,212,Bronx,4659,67,-73.86306,40.87704849
2057745,3550,HOLLAND AVENUE,10467,212,Bronx,4660,11,-73.86387634,40.87812042
2057769,3535,BARNES AVENUE,10467,212,Bronx,4660,61,-73.86193085,40.87799072
2057803,3602,HOLLAND AVENUE,10467,212,Bronx,4661,40,-73.86353302,40.87884903
2057840,716,EAST 215 STREET,10467,212,Bronx,4662,10,-73.86382294,40.88013077
2057852,709,EAST 214 STREET,10467,212,Bronx,4662,27,-73.86431122,40.87989044
2057855,731,EAST 214 STREET,10467,212,Bronx,4662,35,-73.86328888,40.8794899
2057916,729,EAST 215 STREET,10467,212,Bronx,4663,83,-73.86319733,40.88042068
2058054,711,EAST 218 STREET,10467,212,Bronx,4666,37,-73.86245728,40.88288116
2058088,737,EAST 219 STREET,10467,212,Bronx,4667,31,-73.86134338,40.88335037
2058261,3603,BRONXWOOD AVENUE,10469,212,Bronx,4672,107,-73.85946655,40.87797928
2058364,844,EAST 216 STREET,10467,212,Bronx,4674,75,-73.85954285,40.87979889
2058575,829,EAST 220 STREET,10467,212,Bronx,4679,24,-73.85838318,40.88323975
2058602,864,EAST 221 STREET,10467,212,Bronx,4679,73,-73.85691833,40.88311005
2058922,914,EAST 217 STREET,10469,212,Bronx,4687,38,-73.85740662,40.87995911
2059954,1312,NEEDHAM AVENUE,10469,212,Bronx,4711,75,-73.85201263,40.87791824
2059991,1443,OAKLEY STREET,10469,212,Bronx,4714,17,-73.85073853,40.879879
2060747,3349,FENTON AVENUE,10469,212,Bronx,4737,17,-73.84790802,40.87540054
2062589,2962,WICKHAM AVENUE,10469,212,Bronx,4790,2,-73.83789825,40.87076187
2062899,631,EAST 222 STREET,10467,212,Bronx,4824,39,-73.86389923,40.88669968
2062947,649,EAST 223 STREET,10466,212,Bronx,4825,34,-73.86295319,40.88718033
2063151,645,EAST 228 STREET,10466,212,Bronx,4831,55,-73.86107635,40.89073944
2063253,694,EAST 231 STREET,10466,212,Bronx,4833,88,-73.85871124,40.89199066
2063365,723,EAST 223 STREET,10466,212,Bronx,4837,34,-73.86023712,40.88631821
2063453,4009,BARNES AVENUE,10466,212,Bronx,4840,7,-73.85727692,40.88800049
2063490,750,EAST  227 STREET,10466,212,Bronx,4840,75,-73.85797119,40.88843155
2063950,828,EAST 227 STREET,10466,212,Bronx,4851,59,-73.8557663,40.88772964
2064118,867,EAST  230 STREET,10466,212,Bronx,4855,14,-73.85311127,40.88985825
2064200,824,EAST 232 STREET,10466,212,Bronx,4856,63,-73.85407257,40.89133835
2064327,901,EAST 223 STREET,10466,212,Bronx,4859,37,-73.85518646,40.88470078
2064336,924,EAST 224 STREET,10466,212,Bronx,4859,59,-73.85414124,40.88470078
2064365,967,EAST 224 STREET,10466,212,Bronx,4860,10,-73.85254669,40.88459015
2064399,918,EAST 225 STREET,10466,212,Bronx,4860,61,-73.8540802,40.88555908
2064442,3988,BRONXWOOD AVENUE,10466,212,Bronx,4861,50,-73.85411072,40.88637924
2064639,915,EAST 229 STREET,10466,212,Bronx,4865,39,-73.85236359,40.88879013
2066203,3849,AMUNDSON AVENUE,10466,212,Bronx,4939,22,-73.83547211,40.88817978
2066461,2232,LIGHT STREET,10466,212,Bronx,4950,42,-73.83062744,40.88761902
2066463,2236,LIGHT STREET,10466,212,Bronx,4950,44,-73.83048248,40.88761902
2067029,4018,PRATT AVENUE,10466,212,Bronx,4966,15,-73.83364868,40.89131927
2067267,1800,EDENWALD AVENUE,10466,212,Bronx,4977,27,-73.84780884,40.89175034
2067947,4014,AMUNDSON AVENUE,10466,212,Bronx,4989,2,-73.83638763,40.89204025
2068071,687,EAST 234 STREET,10466,212,Bronx,4995,5,-73.85732269,40.89453125
2068072,685,EAST 234 STREET,10466,212,Bronx,4995,7,-73.85743713,40.8945694
2069628,633,EAST 236 STREET,10466,212,Bronx,5037,26,-73.85829163,40.89649963
2070910,4511,MATILDA AVENUE,10470,212,Bronx,5076,92,-73.85485077,40.90127182
2071042,4556,RICHARDSON AVENUE,10470,212,Bronx,5081,42,-73.8526535,40.90177917
2071921,740,EAST 243 STREET,10470,212,Bronx,5115,47,-73.84763336,40.90578079
2073762,2915,LA SALLE AVENUE,10461,210,Bronx,5358,9,-73.83085632,40.83924103
2074389,1539,MAYFLOWER AVENUE,10461,210,Bronx,5384,36,-73.8349762,40.84189987
2079895,2881,PHILIP AVENUE,10465,210,Bronx,5543,47,-73.8245163,40.82770157
2084078,3251,CAMBRIDGE AVENUE,10463,208,Bronx,5785,282,-73.90873718,40.88431931
2087328,3520,CORSA AVENUE,10469,212,Bronx,4722,54,-73.84806824,40.87873077
2090189,3019,ELY AVENUE,10469,212,Bronx,4776,23,-73.83722687,40.87197876
2091324,702,EAGLE AVENUE,10455,201,Bronx,2624,35,-73.90973663,40.81827927
2092421,2409,GRAND AVENUE,10468,207,Bronx,3212,78,-73.90400696,40.86225128
2092422,2411,GRAND AVENUE,10468,207,Bronx,3212,78,-73.90400696,40.86225128
2092506,225 REAR,EAST  203 STREET,10458,207,Bronx,3309,135,-73.88562775,40.87408066
2092541,400,EAST GUN HILL ROAD,10467,207,Bronx,3357,225,-73.87135315,40.87833023
2093557,763,EAST  217 STREET,10467,212,Bronx,4665,15,-73.86118317,40.88164902
2093770,662,EAST  236 STREET,10466,212,Bronx,4996,72,-73.85758972,40.8957901
2094188,866,EAST 221 STREET,10467,212,Bronx,4679,73,-73.85691833,40.88311005
2094515,221,EAST TREMONT AVENUE,10457,205,Bronx,2809,53,-73.9048233,40.84928131
2096828,855A,UNDERHILL AVENUE,10473,209,Bronx,3643,7502,-73.86071777,40.82294083
2100800,975,CAULDWELL AVENUE,10456,203,Bronx,2622,119,-73.90635681,40.82526016
2102497,280,DAVIS AVENUE,10465,210,Bronx,5598,38,-73.82549286,40.81555176
2103878,643,THIERIOT AVENUE,10473,209,Bronx,3559,60,-73.86165619,40.81851959
2112732,412,EAST  187 STREET,10458,206,Bronx,3031,145,-73.8935318,40.85834885
2112842,189,ST GEORGE'S CRESCENT,10458,207,Bronx,3313,74,-73.88495636,40.87633896
2113321,502,EAST  184 STREET,10458,206,Bronx,3053,119,-73.89183807,40.85530853
2114245,1372,PROSPECT AVENUE,10459,203,Bronx,2971,6,-73.8966217,40.83076096
2114922,814,BRYANT AVENUE,10474,202,Bronx,2762,132,-73.88600922,40.81748962
2114932,793,JENNINGS STREET,10459,203,Bronx,2963,46,-73.89611053,40.83224106
2114940,785,JENNINGS STREET,10459,203,Bronx,2963,149,-73.89639282,40.83214951
2115018,1053,SUMMIT AVENUE,10452,204,Bronx,2523,139,-73.92976379,40.83444977
2115021,1047,SUMMIT AVENUE,10452,204,Bronx,2523,142,-73.92986298,40.83427048
2115357,3939,DE REIMER AVENUE,10466,212,Bronx,4955,41,-73.84178162,40.88972855
2116564,1743,DAVIDSON AVENUE,10453,205,Bronx,2867,36,-73.91325378,40.84835052
2117268,2116,BOGART AVENUE,10462,211,Bronx,4325,38,-73.86086273,40.8543396
3000988,483,PACIFIC STREET,11217,302,Brooklyn,185,41,-73.98181152,40.68516922
3002977,172,ATLANTIC AVENUE,11201,306,Brooklyn,286,12,-73.99385071,40.68983841
3004486,522A,HENRY STREET,11231,306,Brooklyn,343,25,-74.00006866,40.68333054
3005481,105,LUQUER STREET,11231,306,Brooklyn,373,43,-74.00106812,40.67808914
3006055,56,WYCKOFF STREET,11201,302,Brooklyn,390,34,-73.99165344,40.68613052
3008580,151,CONOVER STREET,11231,306,Brooklyn,565,1,-74.01352692,40.67821121
3009465,229,23 STREET,11232,307,Brooklyn,646,50,-73.99476624,40.6606102
3009466,227,23 STREET,11232,307,Brooklyn,646,51,-73.99484253,40.66065979
3009467,225,23 STREET,11232,307,Brooklyn,646,52,-73.99491119,40.66070175
3009824,179,29 STREET,11232,307,Brooklyn,665,70,-73.99958801,40.65805054
3009837,140,29 STREET,11232,307,Brooklyn,668,19,-74.0016098,40.65871048
3009852,194,  29 STREET,11232,307,Brooklyn,669,18,-73.99947357,40.65742874
3010143,122,33 STREET,11232,307,Brooklyn,684,15,-74.00428772,40.65668106
3010145,128,  33 STREET,11232,307,Brooklyn,684,17,-74.00415039,40.65660095
3010588,444,40 STREET,11232,307,Brooklyn,714,19,-74.00598145,40.65132904
3010597,468,40 STREET,11232,307,Brooklyn,714,35,-74.00517273,40.65084076
3010612,451,41 STREET,11232,307,Brooklyn,714,58,-74.00578308,40.65084076
3010690,4112,4 AVENUE,11232,307,Brooklyn,718,43,-74.00801849,40.65132904
3011031,4324,8 AVENUE,11232,307,Brooklyn,732,49,-74.00034332,40.64469147
3011533,4501,   4 AVENUE,11220,307,Brooklyn,747,9,-74.00945282,40.64899063
3012477,838,47 STREET,11220,312,Brooklyn,769,20,-74.00113678,40.64202118
3012919,434,49 STREET,11220,307,Brooklyn,783,19,-74.01126099,40.6463089
3013325,549,51 STREET,11220,307,Brooklyn,792,48,-74.00952148,40.64398956
3013571,463,  52 STREET,11220,307,Brooklyn,799,50,-74.01194,40.64453125
3014290,5301,5 AVENUE,11220,307,Brooklyn,816,9,-74.01190948,40.64318085
3014339,517,  54 STREET,11220,307,Brooklyn,816,70,-74.01194,40.64271164
3014849,715,55 STREET,11220,307,Brooklyn,826,74,-74.00821686,40.6395607
3015115,637,  56 STREET,11220,307,Brooklyn,833,62,-74.01043701,40.63999176
3015974,5817,4 AVENUE,11220,307,Brooklyn,855,3,-74.01732635,40.64146042
3016249,245,60 STREET,11220,307,Brooklyn,861,60,-74.02142334,40.64295959
3016584,266,PROSPECT PARK WEST,11215,307,Brooklyn,870,41,-73.98223114,40.65864944
3016602,455,17 STREET,11215,307,Brooklyn,870,62,-73.98338318,40.65921021
3017171,273,20 STREET,11215,307,Brooklyn,885,61,-73.99152374,40.6613884
3017772,875,39 STREET,11232,312,Brooklyn,908,147,-73.99526215,40.64633942
3017807,566,39 STREET,11232,307,Brooklyn,913,29,-74.00245667,40.65010834
3018366,837,  43 STREET,11232,312,Brooklyn,925,64,-73.99848175,40.64461899
3018577,61,5 AVENUE,11217,306,Brooklyn,933,1,-73.97715759,40.68085861
3020277,235,5 AVENUE,11215,306,Brooklyn,959,4,-73.98094177,40.67527008
3022205,130,9 STREET,11215,306,Brooklyn,1008,8,-73.99329376,40.67234039
3023684,171,15 STREET,11215,306,Brooklyn,1041,65,-73.99059296,40.66643143
3025457,473,4 STREET,11215,306,Brooklyn,1080,66,-73.9782486,40.66976929
3025458,469,4 STREET,11215,306,Brooklyn,1080,68,-73.97834778,40.66981125
3026096,673,10 STREET,11215,306,Brooklyn,1093,54,-73.97823334,40.66468048
3027628,523,DEAN STREET,11217,308,Brooklyn,1128,75,-73.97286987,40.68146896
3028224,740,BERGEN STREET,11238,308,Brooklyn,1146,23,-73.96421051,40.67837906
3028555,340,ST MARKS AVENUE,11238,308,Brooklyn,1153,25,-73.96444702,40.6774292
3028683,581,PROSPECT PLACE,11238,308,Brooklyn,1156,67,-73.95726013,40.67546082
3028989,455,PARK PLACE,11238,308,Brooklyn,1162,87,-73.9625473,40.67567062
3029455,473,ST JOHNS PLACE,11238,308,Brooklyn,1174,57,-73.96217346,40.67369843
3029510,567,ST JOHNS PLACE,11238,308,Brooklyn,1175,85,-73.95922089,40.67301941
3029511,565,ST JOHNS PLACE,11238,308,Brooklyn,1175,87,-73.95926666,40.67309952
3029523,392,ST JOHNS PLACE,11238,308,Brooklyn,1176,27,-73.96478271,40.6736908
3029582,554,ST JOHNS PLACE,11238,308,Brooklyn,1178,21,-73.95979309,40.67266083
3029601,782,FRANKLIN AVENUE,11238,308,Brooklyn,1178,51,-73.9578476,40.67187119
3029627,362,LINCOLN PLACE,11238,308,Brooklyn,1179,37,-73.96408844,40.67287064
3029725,961,WASHINGTON AVENUE,11225,309,Brooklyn,1192,14,-73.96114349,40.66601181
3029726,941,WASHINGTON AVENUE,11225,309,Brooklyn,1192,18,-73.96125031,40.6663208
3030068,1237,DEAN STREET,11216,308,Brooklyn,1207,52,-73.9482193,40.67702103
3030348,1055,BERGEN STREET,11216,308,Brooklyn,1212,65,-73.95147705,40.6764183
3030350,1049,BERGEN STREET,11216,308,Brooklyn,1212,68,-73.95166016,40.6764183
3030514,103,KINGSTON AVENUE,11213,308,Brooklyn,1216,3,-73.94139862,40.67618942
3030573,952,BERGEN STREET,11216,308,Brooklyn,1217,12,-73.95552826,40.6765213
3031002,758,ST MARKS AVENUE,11216,308,Brooklyn,1227,31,-73.94809723,40.67481995
3031004,768,ST MARKS AVENUE,11216,308,Brooklyn,1227,36,-73.94759369,40.67478943
3031007,855,PROSPECT PLACE,11216,308,Brooklyn,1227,54,-73.94803619,40.67446899
3031027,169,NEW YORK AVENUE,11216,308,Brooklyn,1228,3,-73.94698334,40.67433929
3031191,105,ROGERS AVENUE,11216,308,Brooklyn,1233,7,-73.9526062,40.67398071
3031192,101,ROGERS AVENUE,11216,308,Brooklyn,1233,9,-73.95258331,40.67412186
3031206,780,PROSPECT PLACE,11216,308,Brooklyn,1233,38,-73.95084381,40.67411041
3031221,815,PARK PLACE,11216,308,Brooklyn,1233,58,-73.95081329,40.6736908
3031294,930,PROSPECT PLACE,11213,308,Brooklyn,1235,27,-73.94582367,40.67383957
3031471,102,ROGERS AVENUE,11216,308,Brooklyn,1239,21,-73.95332336,40.67317963
3031497,792,PARK PLACE,11216,308,Brooklyn,1240,23,-73.95149994,40.67322922
3031639,996,PARK PLACE,11213,308,Brooklyn,1243,11,-73.94425201,40.67287064
3031673,1069,STERLING PLACE,11213,308,Brooklyn,1243,54,-73.94317627,40.67237854
3032098,1111,ST JOHNS PLACE,11213,308,Brooklyn,1251,61,-73.94117737,40.67129898
3032635,521,EASTERN PARKWAY,11216,308,Brooklyn,1261,38,-73.95108032,40.6703186
3032887,410,EASTERN PARKWAY,11225,309,Brooklyn,1267,10,-73.95484924,40.66954041
3032934,576,EASTERN PARKWAY,11225,309,Brooklyn,1269,20,-73.94915009,40.66921997
3033060,800,EASTERN PARKWAY,11213,309,Brooklyn,1272,10,-73.94177246,40.66893005
3033530,1180,PRESIDENT STREET,11225,309,Brooklyn,1282,34,-73.95144653,40.66783905
3033556,1119,CARROLL STREET,11225,309,Brooklyn,1282,70,-73.95246887,40.66754913
3034361,2,STODDARD PLACE,11225,309,Brooklyn,1304,24,-73.95622253,40.66540146
3034936,1789,BEDFORD AVENUE,11225,309,Brooklyn,1319,3,-73.95675659,40.66231155
3034937,1785,BEDFORD AVENUE,11225,309,Brooklyn,1319,4,-73.95675659,40.66239166
3035330,437,ROGERS AVENUE,11225,309,Brooklyn,1329,5,-73.95333862,40.66186905
3035500,570,LEFFERTS AVENUE,11203,309,Brooklyn,1333,13,-73.94203186,40.66265106
3035733,1896,PACIFIC STREET,11233,308,Brooklyn,1344,106,-73.92382813,40.67599869
3035734,1898,PACIFIC STREET,11233,308,Brooklyn,1344,107,-73.92373657,40.67599106
3036047,162,UTICA AVENUE,11213,308,Brooklyn,1360,58,-73.93096161,40.67346954
3036355,1620,PROSPECT PLACE,11233,308,Brooklyn,1369,35,-73.92285919,40.67256165
3036361,1641,PARK PLACE,11233,308,Brooklyn,1369,54,-73.92289734,40.67219925
3036487,1350,PARK PLACE,11213,308,Brooklyn,1372,20,-73.93261719,40.67219925
3036738,1288,STERLING PLACE,11213,308,Brooklyn,1377,10,-73.93589783,40.67148972
3036741,1298,STERLING PLACE,11213,308,Brooklyn,1377,13,-73.93562317,40.67147064
3036750,1326,STERLING PLACE,11213,308,Brooklyn,1377,22,-73.93476105,40.67142868
3036760,234,SCHENECTADY AVENUE,11213,308,Brooklyn,1377,32,-73.93396759,40.67129135
3036761,236,SCHENECTADY AVENUE,11213,308,Brooklyn,1377,33,-73.93398285,40.67121887
3036921,1674,STERLING PLACE,11233,308,Brooklyn,1381,33,-73.92336273,40.67079163
3036937,1627,ST JOHNS PLACE,11233,308,Brooklyn,1381,58,-73.92331696,40.67044067
3037058,1366,ST JOHNS PLACE,11213,308,Brooklyn,1384,15,-73.93312073,40.67044067
3037371,1205,EASTERN PARKWAY,11213,308,Brooklyn,1391,45,-73.9285202,40.66910934
3037373,1193,EASTERN PARKWAY,11213,308,Brooklyn,1391,49,-73.92887878,40.66912842
3037536,1635,UNION STREET,11213,309,Brooklyn,1395,68,-73.93595123,40.66830063
3037619,1314,EASTERN PARKWAY,11233,308,Brooklyn,1399,7,-73.92472839,40.66799164
3037676,332,TROY AVENUE,11213,309,Brooklyn,1400,49,-73.93707275,40.66754913
3037764,1706,UNION STREET,11213,309,Brooklyn,1402,36,-73.93180847,40.66762161
3037965,321,UTICA AVENUE,11213,309,Brooklyn,1409,6,-73.93100739,40.66669846
3038604,2276,ATLANTIC AVENUE,11233,316,Brooklyn,1435,16,-73.91002655,40.67599106
3038610,2292,ATLANTIC AVENUE,11233,316,Brooklyn,1435,26,-73.90943146,40.67596054
3038612,2296,ATLANTIC AVENUE,11233,316,Brooklyn,1435,28,-73.90930176,40.6759491
3038613,2298,ATLANTIC AVENUE,11233,316,Brooklyn,1435,29,-73.90924072,40.6759491
3038655,2362,ATLANTIC AVENUE,11233,316,Brooklyn,1436,22,-73.90682983,40.6758194
3038672,351,HOWARD AVENUE,11233,316,Brooklyn,1439,4,-73.91905975,40.67551041
3038703,2083,DEAN STREET,11233,316,Brooklyn,1439,70,-73.91853333,40.67541122
3038738,2240,PACIFIC STREET,11233,316,Brooklyn,1442,21,-73.90995789,40.67523956
3038767,2344,PACIFIC STREET,11233,316,Brooklyn,1443,13,-73.90775299,40.67512131
3038777,2364,PACIFIC STREET,11233,316,Brooklyn,1443,23,-73.90705109,40.67507935
3038825,1719,EAST NEW YORK AVENUE,11212,316,Brooklyn,1444,31,-73.90502167,40.67498016
3038937,1967,BERGEN STREET,11233,316,Brooklyn,1447,71,-73.91571045,40.67446899
3038978,2446,DEAN STREET,11233,316,Brooklyn,1450,31,-73.90644836,40.67435837
3039108,2044,BERGEN STREET,11233,316,Brooklyn,1454,22,-73.91290283,40.67380905
3039273,1569,EAST NEW YORK AVENUE,11212,316,Brooklyn,1461,27,-73.91015625,40.67277908
3039353,1837,PARK PLACE,11233,316,Brooklyn,1464,76,-73.91639709,40.6718483
3039367,1924,PROSPECT PLACE,11233,316,Brooklyn,1465,25,-73.91268158,40.67203903
3039411,1549,EASTERN PARKWAY,11233,316,Brooklyn,1468,32,-73.91676331,40.67108917
3039413,1570,EASTERN PARKWAY,11233,316,Brooklyn,1468,38,-73.9159317,40.67084885
3039420,1588,EASTERN PARKWAY,11233,316,Brooklyn,1468,46,-73.91539764,40.67103958
3039533,1804,ST JOHNS PLACE,11233,316,Brooklyn,1474,33,-73.91779327,40.66962051
3039736,31,HOWARD AVENUE,11221,303,Brooklyn,1484,47,-73.92077637,40.6876297
3039903,992,JEFFERSON AVENUE,11221,303,Brooklyn,1488,39,-73.91811371,40.6867218
3039971,829,HALSEY STREET,11233,303,Brooklyn,1491,55,-73.91943359,40.68553162
3040237,743,MAC DONOUGH STREET,11233,316,Brooklyn,1498,65,-73.91648865,40.68436813
3040558,165,HOWARD AVENUE,11233,303,Brooklyn,1505,1,-73.9197998,40.68278122
3040816,319,CHAUNCEY STREET,11233,303,Brooklyn,1508,71,-73.92163086,40.68153
3040820,199,HOWARD AVENUE,11233,303,Brooklyn,1509,1,-73.919487,40.68167114
3040825,181,HOWARD AVENUE,11233,303,Brooklyn,1509,7,-73.91966248,40.68204117
3040880,516,BAINBRIDGE STREET,11233,316,Brooklyn,1510,16,-73.91623688,40.68244171
3040904,491,CHAUNCEY STREET,11233,316,Brooklyn,1510,47,-73.91490173,40.68230057
3040963,561,CHAUNCEY STREET,11233,316,Brooklyn,1511,45,-73.912323,40.68260956
3041003,278,CHAUNCEY STREET,11233,303,Brooklyn,1513,14,-73.92162323,40.68106842
3041175,516,CHAUNCEY STREET,11233,316,Brooklyn,1517,7,-73.91107178,40.68228149
3041269,344,MARION STREET,11233,316,Brooklyn,1520,24,-73.91555023,40.68101883
3041501,128,HOPKINSON AVENUE,11233,316,Brooklyn,1526,30,-73.91422272,40.68032074
3041685,141,HULL STREET,11233,316,Brooklyn,1533,51,-73.91191864,40.67964935
3041693,121,HULL STREET,11233,316,Brooklyn,1533,61,-73.91262054,40.67956924
3041734,187,HULL STREET,11233,316,Brooklyn,1534,48,-73.9093399,40.67995071
3041780,219,HULL STREET,11233,316,Brooklyn,1535,53,-73.90795135,40.68011093
3041783,211,HULL STREET,11233,316,Brooklyn,1535,56,-73.90821075,40.68008041
3042083,101,TRUXTON STREET,11233,316,Brooklyn,1544,52,-73.90566254,40.67887115
3042110,2008,FULTON STREET,11233,303,Brooklyn,1549,15,-73.91790771,40.67842102
3042122,1115,HERKIMER STREET,11233,303,Brooklyn,1549,38,-73.91657257,40.67803955
3042242,2172,FULTON STREET,11233,316,Brooklyn,1552,18,-73.90981293,40.67797852
3042259,2204,FULTON STREET,11233,316,Brooklyn,1552,38,-73.9083786,40.67789841
3042427,257,SARATOGA AVENUE,11233,316,Brooklyn,1562,7,-73.91610718,40.67718887
3042592,190,ROCKAWAY AVENUE,11233,316,Brooklyn,1567,38,-73.91116333,40.67675018
3042691,1869,EASTERN PARKWAY,11233,316,Brooklyn,1570,37,-73.90840149,40.67646027
3042729,1420,HERKIMER STREET,11233,316,Brooklyn,1572,16,-73.90659332,40.67707062
3042888,327,VERNON AVENUE,11206,303,Brooklyn,1585,47,-73.93846893,40.6960907
3042956,819,WILLOUGHBY AVENUE,11206,303,Brooklyn,1589,7501,-73.93566895,40.69565964
3043075,316,HART STREET,11206,303,Brooklyn,1594,24,-73.93881226,40.69408035
3043176,4,MALCOLM X BOULEVARD,11221,303,Brooklyn,1599,36,-73.93160248,40.69419098
3043895,977,GREENE AVENUE,11221,303,Brooklyn,1617,48,-73.92814636,40.69124985
3044243,553,QUINCY STREET,11221,303,Brooklyn,1624,60,-73.93731689,40.6887207
3045160,709,PUTNAM AVENUE,11221,303,Brooklyn,1645,47,-73.9332962,40.68619156
3045225,763,PUTNAM AVENUE,11221,303,Brooklyn,1646,56,-73.93103027,40.68645096
3045333,842,MADISON STREET,11221,303,Brooklyn,1648,38,-73.924263,40.68751144
3046338,691,HALSEY STREET,11233,303,Brooklyn,1663,75,-73.92484283,40.68490982
3046797,373,LEWIS AVENUE,11233,303,Brooklyn,1670,10,-73.93470764,40.68267822
3047352,457,DECATUR STREET,11233,303,Brooklyn,1678,88,-73.92495728,40.68265152
3047616,221,BAINBRIDGE STREET,11233,303,Brooklyn,1682,79,-73.92826843,40.68151855
3048405,188,THROOP AVENUE,11206,303,Brooklyn,1732,23,-73.94434357,40.69852829
3048511,545,MARCY AVENUE,11206,303,Brooklyn,1743,4,-73.94917297,40.6964798
3048580,740,MYRTLE AVENUE,11205,303,Brooklyn,1753,21,-73.95323944,40.69467926
3048813,601,MARCY AVENUE,11206,303,Brooklyn,1759,5,-73.94869995,40.69437027
3048825,521,WILLOUGHBY AVENUE,11206,303,Brooklyn,1759,73,-73.94848633,40.69417953
3048831,156,VERNON AVENUE,11206,303,Brooklyn,1760,12,-73.94564056,40.69480133
3049387,199,PULASKI STREET,11206,303,Brooklyn,1772,51,-73.94325256,40.69318008
3049552,336,THROOP AVENUE,11206,303,Brooklyn,1776,44,-73.94316101,40.69272995
3049570,148,MARCUS GARVEY AVENUE,11206,303,Brooklyn,1777,33,-73.94035339,40.69313049
3049571,152,MARCUS GARVEY AVENUE,11206,303,Brooklyn,1777,33,-73.94035339,40.69313049
3049763,503,LAFAYETTE AVENUE,11205,303,Brooklyn,1783,97,-73.95449066,40.68975067
3049807,660,LAFAYETTE AVENUE,11216,303,Brooklyn,1785,77,-73.94806671,40.69049072
3049977,249,TOMPKINS AVENUE,11216,303,Brooklyn,1791,7,-73.94499969,40.69031906
3050038,798,LAFAYETTE AVENUE,11221,303,Brooklyn,1792,26,-73.94088745,40.6908493
3050266,611,GREENE AVENUE,11221,303,Brooklyn,1795,79,-73.9444809,40.68939972
3050604,173,QUINCY STREET,11216,303,Brooklyn,1802,101,-73.95411682,40.68679047
3050643,285,QUINCY STREET,11216,303,Brooklyn,1803,72,-73.94928741,40.68738174
3051154,215,MONROE STREET,11216,303,Brooklyn,1813,83,-73.94992828,40.68577957
3051637,246,MADISON STREET,11216,303,Brooklyn,1823,27,-73.94893646,40.68466949
3051703,385A,PUTNAM AVENUE,11216,303,Brooklyn,1824,65,-73.94587708,40.68473816
3051783,438,MADISON STREET,11221,303,Brooklyn,1826,15,-73.94068909,40.6856308
3052132,522,PUTNAM AVENUE,11221,303,Brooklyn,1831,16,-73.94051361,40.68489075
3052337,165,HANCOCK STREET,11216,303,Brooklyn,1833,79,-73.94933319,40.68284988
3052412,409,TOMPKINS AVENUE,11216,303,Brooklyn,1835,4,-73.9437027,40.68355179
3052485,309,HANCOCK STREET,11216,303,Brooklyn,1835,81,-73.9434967,40.68349075
3053337,25,MAC DONOUGH STREET,11216,303,Brooklyn,1851,63,-73.94541168,40.68104935
3053347,473,TOMPKINS AVENUE,11216,303,Brooklyn,1852,3,-73.94320679,40.68128967
3053349,469,TOMPKINS AVENUE,11216,303,Brooklyn,1852,5,-73.94322968,40.6814003
3053382,133,MAC DONOUGH STREET,11216,303,Brooklyn,1852,49,-73.94101715,40.68154907
3053416,310,MACON STREET,11216,303,Brooklyn,1853,37,-73.93840027,40.68214035
3053455,30,MAC DONOUGH STREET,11216,303,Brooklyn,1854,14,-73.94500732,40.68062973
3053623,1511,FULTON STREET,11216,303,Brooklyn,1857,6,-73.94090271,40.68014908
3053625,1507,FULTON STREET,11216,303,Brooklyn,1857,8,-73.94104004,40.68016052
3053764,175,HERKIMER STREET,11216,303,Brooklyn,1861,46,-73.94756317,40.67975998
3053838,1,KINGSTON AVENUE,11213,303,Brooklyn,1864,1,-73.94107056,40.67969131
3053862,429,HERKIMER STREET,11213,303,Brooklyn,1864,45,-73.93914795,40.67929077
3054357,87,WAVERLY AVENUE,11205,302,Brooklyn,1889,28,-73.96793365,40.69509125
3054735,95,FRANKLIN AVENUE,11205,303,Brooklyn,1899,23,-73.95806122,40.69610977
3054752,645,MYRTLE AVENUE,11205,303,Brooklyn,1899,73,-73.957901,40.69459915
3054809,167,WAVERLY AVENUE,11205,302,Brooklyn,1903,16,-73.96748352,40.69284058
3054944,162,FRANKLIN AVENUE,11205,303,Brooklyn,1912,37,-73.95819092,40.69382095
3055168,485,DE KALB AVENUE,11205,303,Brooklyn,1926,68,-73.95757294,40.69083023
3057121,80,MONROE STREET,11216,303,Brooklyn,1988,9,-73.95609283,40.68470001
3057755,1160,FULTON STREET,11216,303,Brooklyn,2017,27,-73.95462799,40.68066025
3057762,1174,FULTON STREET,11216,303,Brooklyn,2017,34,-73.95411682,40.68058014
3057991,108,FLUSHING AVENUE,11205,302,Brooklyn,2031,33,-73.97293854,40.69771957
3058039,129,CARLTON AVENUE,11205,302,Brooklyn,2044,4,-73.97268677,40.6938591
3059045,133,LAFAYETTE AVENUE,11238,302,Brooklyn,2102,69,-73.97257996,40.68769073
3059273,101,SOUTH ELLIOTT PLACE,11217,302,Brooklyn,2114,17,-73.97519684,40.68634033
3059909,37,LEE AVENUE,11211,301,Brooklyn,2178,3,-73.96074677,40.70677948
3060353,178,HOOPER STREET,11211,301,Brooklyn,2206,7,-73.95770264,40.70426941
3060485,96,HEWES STREET,11249,301,Brooklyn,2210,24,-73.95983124,40.70190048
3060777,154,PENN STREET,11211,301,Brooklyn,2218,27,-73.9572525,40.70259857
3061782,146,NORTH    9 STREET,11249,301,Brooklyn,2311,15,-73.95739746,40.71918869
3062320,108,NORTH    5 STREET,11249,301,Brooklyn,2343,101,-73.96027374,40.71728134
3062697,48,MARCY AVENUE,11211,301,Brooklyn,2384,21,-73.95545197,40.71268845
3062701,335,GRAND STREET,11211,301,Brooklyn,2384,31,-73.95603943,40.71274948
3063425,333,BERRY STREET,11249,301,Brooklyn,2443,8,-73.9644928,40.71215057
3064326,196,HURON STREET,11222,301,Brooklyn,2533,21,-73.95343018,40.73294067
3065140,880,MANHATTAN AVENUE,11222,301,Brooklyn,2574,58,-73.9537735,40.72977066
3065315,1074,LORIMER STREET,11222,301,Brooklyn,2596,9,-73.9536438,40.72750854
3067766,201,ENGERT AVENUE,11222,301,Brooklyn,2705,43,-73.94171143,40.72217178
3067961,174,BAYARD STREET,11222,301,Brooklyn,2726,12,-73.94523621,40.7203598
3069482,90,BUSHWICK AVENUE,11211,301,Brooklyn,2784,21,-73.94101715,40.71213913
3069679,51,TEN EYCK STREET,11206,301,Brooklyn,2792,37,-73.94844818,40.70993042
3070709,147,THAMES STREET,11237,301,Brooklyn,3010,24,-73.92682648,40.70594025
3070717,127,THAMES STREET,11237,301,Brooklyn,3010,34,-73.92772675,40.70579147
3071449,82,GRAHAM AVENUE,11206,301,Brooklyn,3097,2,-73.94238281,40.70397949
3071599,681,BROADWAY,11206,301,Brooklyn,3119,9,-73.94374084,40.70204926
3071756,23,LOCUST STREET,11206,304,Brooklyn,3134,38,-73.93773651,40.69940186
3071842,942,FLUSHING AVENUE,11206,304,Brooklyn,3143,14,-73.93353271,40.70254898
3071929,180,NOLL STREET,11237,304,Brooklyn,3155,14,-73.92989349,40.70383072
3072128,414,MELROSE STREET,11237,304,Brooklyn,3166,19,-73.92661285,40.70478058
3072150,299,JEFFERSON STREET,11237,304,Brooklyn,3166,50,-73.92652893,40.70439911
3072360,318,JEFFERSON STREET,11237,304,Brooklyn,3175,25,-73.92552948,40.70468903
3072366,32,IRVING AVENUE,11237,304,Brooklyn,3175,32,-73.92517853,40.70487976
3072504,95,WILSON AVENUE,11237,304,Brooklyn,3186,7,-73.92723846,40.70182037
3072578,149,STARR STREET,11237,304,Brooklyn,3187,48,-73.92491913,40.70365143
3072675,26,DITMARS STREET,11221,304,Brooklyn,3194,18,-73.93300629,40.69670105
3072700,32,STARR STREET,11221,304,Brooklyn,3196,22,-73.92720032,40.70059967
3072799,58,ST NICHOLAS AVENUE,11237,304,Brooklyn,3200,32,-73.92066193,40.7066803
3072815,336,STARR STREET,11237,304,Brooklyn,3201,20,-73.92011261,40.70774841
3072879,992,WILLOUGHBY AVENUE,11221,304,Brooklyn,3207,8,-73.92925262,40.69842148
3072938,1130,WILLOUGHBY AVENUE,11237,304,Brooklyn,3209,19,-73.92505646,40.70159912
3073234,869,HART STREET,11237,304,Brooklyn,3220,40,-73.92223358,40.70280075
3073235,865,HART STREET,11237,304,Brooklyn,3220,41,-73.92228699,40.70275116
3073528,714,HART STREET,11221,304,Brooklyn,3234,24,-73.92484283,40.69944
3073584,325,KNICKERBOCKER AVENUE,11237,304,Brooklyn,3236,4,-73.92254639,40.70148087
3073588,818,HART STREET,11237,304,Brooklyn,3236,8,-73.9228363,40.70164108
3073701,109,ST NICHOLAS AVENUE,11237,304,Brooklyn,3239,6,-73.9183197,40.70584106
3073991,409,STOCKHOLM STREET,11237,304,Brooklyn,3250,35,-73.91693878,40.70574951
3074035,829,BUSHWICK AVENUE,11221,304,Brooklyn,3253,6,-73.92700195,40.6947403
3074051,312,EVERGREEN AVENUE,11221,304,Brooklyn,3253,27,-73.92624664,40.69530106
3074132,174,STOCKHOLM STREET,11237,304,Brooklyn,3257,12,-73.92241669,40.69950104
3074135,180,STOCKHOLM STREET,11237,304,Brooklyn,3257,15,-73.92225647,40.69966888
3074157,187,STANHOPE STREET,11237,304,Brooklyn,3257,40,-73.92165375,40.6998291
3074193,252,STOCKHOLM STREET,11237,304,Brooklyn,3258,26,-73.92021942,40.70175171
3074511,241,HIMROD STREET,11237,304,Brooklyn,3269,48,-73.91966248,40.70066071
3074545,138,WYCKOFF AVENUE,11237,304,Brooklyn,3270,35,-73.91754913,40.70299149
3074828,321,HARMAN STREET,11237,304,Brooklyn,3279,38,-73.91837311,40.70077896
3074849,211,IRVING AVENUE,11237,304,Brooklyn,3280,4,-73.91797638,40.70135117
3074879,370,HIMROD STREET,11237,304,Brooklyn,3281,12,-73.91647339,40.70317078
3075100,306,HARMAN STREET,11237,304,Brooklyn,3289,15,-73.9184494,40.69997025
3075140,235,IRVING AVENUE,11237,304,Brooklyn,3290,2,-73.91709137,40.70082855
3075167,1433,GREENE AVENUE,11237,304,Brooklyn,3290,38,-73.91615295,40.70188904
3075168,1431,GREENE AVENUE,11237,304,Brooklyn,3290,39,-73.91619873,40.70183182
3075229,209,ST NICHOLAS AVENUE,11237,304,Brooklyn,3292,5,-73.91461182,40.70363998
3075395,276,WILSON AVENUE,11237,304,Brooklyn,3297,34,-73.91960907,40.69696045
3075432,1386,GREENE AVENUE,11237,304,Brooklyn,3300,26,-73.91737366,40.69987106
3075472,1422,GREENE AVENUE,11237,304,Brooklyn,3301,10,-73.91654968,40.70072174
3075769,317,MENAHAN STREET,11237,304,Brooklyn,3310,56,-73.9152832,40.70034027
3075977,343,GROVE STREET,11237,304,Brooklyn,3319,54,-73.91455078,40.69990158
3076164,269,LINDEN STREET,11237,304,Brooklyn,3326,60,-73.91517639,40.69805145
3076171,255,LINDEN STREET,11237,304,Brooklyn,3326,65,-73.91544342,40.69778061
3076193,343,LINDEN STREET,11237,304,Brooklyn,3328,49,-73.91368866,40.69958115
3076409,1112,GATES AVENUE,11221,304,Brooklyn,3339,13,-73.92098236,40.69023895
3076458,181,PALMETTO STREET,11221,304,Brooklyn,3342,53,-73.91664886,40.69417953
3076587,120,PALMETTO STREET,11221,304,Brooklyn,3350,13,-73.9177475,40.69232941
3076689,387,WOODBINE STREET,11237,304,Brooklyn,3353,30,-73.91182709,40.69789886
3076856,335,WOODBINE STREET,11237,304,Brooklyn,3362,38,-73.91252136,40.69718933
3077155,27,CORNELIA STREET,11221,304,Brooklyn,3373,49,-73.91786194,40.68817139
3077211,1230,PUTNAM AVENUE,11221,304,Brooklyn,3375,20,-73.9152298,40.69131851
3077430,407,CORNELIA STREET,11237,304,Brooklyn,3379,71,-73.90866852,40.69752884
3077449,38,CORNELIA STREET,11221,304,Brooklyn,3380,26,-73.91713715,40.68817902
3077450,40,CORNELIA STREET,11221,304,Brooklyn,3380,27,-73.917099,40.68822098
3077456,1182,BUSHWICK AVENUE,11221,304,Brooklyn,3380,34,-73.91683197,40.68841171
3077575,479,CENTRAL AVENUE,11221,304,Brooklyn,3383,2,-73.91326904,40.6916008
3077827,989,HANCOCK STREET,11221,304,Brooklyn,3387,60,-73.91654205,40.68712997
3077973,1302,JEFFERSON AVENUE,11221,304,Brooklyn,3391,5,-73.91150665,40.69290161
3078081,1335,HANCOCK STREET,11237,304,Brooklyn,3392,62,-73.90930176,40.69451141
3078095,1452,JEFFERSON AVENUE,11237,304,Brooklyn,3393,10,-73.90852356,40.695961
3078267,151,WEIRFIELD STREET,11221,304,Brooklyn,3396,49,-73.91255188,40.68999863
3078334,517,WILSON AVENUE,11221,304,Brooklyn,3398,4,-73.91042328,40.69227982
3078335,515,WILSON AVENUE,11221,304,Brooklyn,3398,6,-73.91049957,40.69232941
3078876,1242,HALSEY STREET,11207,304,Brooklyn,3412,24,-73.90840149,40.69231033
3078985,35,COVERT STREET,11207,304,Brooklyn,3414,53,-73.91304016,40.68592072
3079374,326,COVERT STREET,11237,304,Brooklyn,3425,25,-73.90525055,40.69313049
3079494,186,SCHAEFER STREET,11207,304,Brooklyn,3429,24,-73.9076004,40.68954086
3079538,226,SCHAEFER STREET,11207,304,Brooklyn,3430,16,-73.90646362,40.69070816
3079562,1269,DECATUR STREET,11207,304,Brooklyn,3430,46,-73.90618134,40.69052124
3079586,278,SCHAEFER STREET,11237,304,Brooklyn,3431,17,-73.90500641,40.69218063
3079800,225,COOPER STREET,11207,304,Brooklyn,3436,47,-73.90531158,40.69020844
3079945,711,EVERGREEN AVENUE,11207,304,Brooklyn,3440,1,-73.90807343,40.68621826
3080003,643,CENTRAL AVENUE,11207,304,Brooklyn,3441,7,-73.90686798,40.68796158
3080371,24,GRANITE STREET,11207,304,Brooklyn,3461,17,-73.90770721,40.68228149
3080687,1731,PITKIN AVENUE,11212,316,Brooklyn,3489,242,-73.90926361,40.67015076
3080688,1729,PITKIN AVENUE,11212,316,Brooklyn,3489,243,-73.90936279,40.67013931
3080752,45,CHESTER STREET,11212,316,Brooklyn,3499,16,-73.91168976,40.67070007
3080798,685,RALPH AVENUE,11212,316,Brooklyn,3509,10,-73.92220306,40.66613007
3080809,2022,UNION STREET,11212,316,Brooklyn,3509,43,-73.92201233,40.66685867
3080811,2026,UNION STREET,11212,316,Brooklyn,3509,46,-73.92196655,40.66672134
3080884,648,HOWARD AVENUE,11212,316,Brooklyn,3511,68,-73.91992188,40.6661911
3080906,83,LEGION STREET,11212,316,Brooklyn,3514,10,-73.91754913,40.66693878
3081018,130,BRISTOL STREET,11212,316,Brooklyn,3519,56,-73.91255951,40.66809845
3081286,141,LEGION STREET,11212,316,Brooklyn,3536,14,-73.91713715,40.66539001
3082003,351,LEGION STREET,11212,316,Brooklyn,3582,6,-73.91578674,40.6600914
3082018,307,LEGION STREET,11212,316,Brooklyn,3582,24,-73.91606903,40.66115189
3082097,394,AMBOY STREET,11212,316,Brooklyn,3585,53,-73.91262054,40.66059875
3082211,41,NEWPORT STREET,11212,316,Brooklyn,3596,3,-73.91404724,40.65884018
3082249,2253,STRAUSS STREET,11212,316,Brooklyn,3597,6,-73.9134903,40.65880966
3082266,431,HERZL STREET,11212,316,Brooklyn,3598,11,-73.91265869,40.65929031
3082281,110,RIVERDALE AVENUE,11212,316,Brooklyn,3598,30,-73.91265106,40.66016006
3082335,865,HOPKINSON AVENUE,11212,316,Brooklyn,3600,9,-73.91079712,40.65932083
3082369,451,BRISTOL STREET,11212,316,Brooklyn,3601,18,-73.90991211,40.66004944
3082397,912,SARATOGA AVENUE,11212,316,Brooklyn,3607,8,-73.91497803,40.65822983
3082454,2265,STRAUSS STREET,11212,316,Brooklyn,3609,25,-73.91338348,40.65835953
3082478,485,HERZL STREET,11212,316,Brooklyn,3610,14,-73.91229248,40.6578598
3082510,73,LOTT AVENUE,11212,316,Brooklyn,3611,7,-73.91124725,40.65766144
3082585,513,BRISTOL STREET,11212,316,Brooklyn,3613,18,-73.90950012,40.65845108
3082689,2327,STRAUSS STREET,11212,316,Brooklyn,3620,24,-73.91300201,40.65682983
3082706,42,LOTT AVENUE,11212,316,Brooklyn,3621,30,-73.91221619,40.65703964
3082717,540,AMBOY STREET,11212,316,Brooklyn,3621,44,-73.91163635,40.65674973
3082994,649,WATKINS STREET,11212,316,Brooklyn,3639,29,-73.90412903,40.65626907
3083059,713,BRISTOL STREET,11236,316,Brooklyn,3642,12,-73.90818024,40.65330124
3083138,18,WYONA STREET,11207,305,Brooklyn,3662,31,-73.89497375,40.67884827
3083269,43,SHEFFIELD AVENUE,11207,305,Brooklyn,3669,10,-73.89779663,40.67657852
3083401,257,MOTHER GASTON BOULEVARD,11212,316,Brooklyn,3675,4,-73.90738678,40.67311096
3083567,158,BRADFORD STREET,11207,305,Brooklyn,3690,20,-73.89318848,40.67546082
3083853,460,GLENMORE AVENUE,11207,305,Brooklyn,3723,19,-73.89343262,40.67337036
3083934,303,WYONA STREET,11207,305,Brooklyn,3741,6,-73.89253998,40.6714592
3083989,356,MILLER AVENUE,11207,305,Brooklyn,3742,29,-73.89137268,40.67208099
3083993,366,MILLER AVENUE,11207,305,Brooklyn,3742,33,-73.89131165,40.67187119
3084286,369,SHEFFIELD AVENUE,11207,305,Brooklyn,3771,5,-73.89560699,40.66807938
3084313,418,NEW JERSEY AVENUE,11207,305,Brooklyn,3772,34,-73.89440155,40.66902924
3084327,425,NEW JERSEY AVENUE,11207,305,Brooklyn,3773,7501,-73.89379883,40.66896057
3084396,373,BRADFORD STREET,11207,305,Brooklyn,3776,25,-73.89116669,40.6698494
3084488,509,NEW JERSEY AVENUE,11207,305,Brooklyn,3790,7,-73.89328003,40.66693115
3084582,456,BRADFORD STREET,11207,305,Brooklyn,3792,39,-73.89118958,40.6676712
3084752,499,WYONA STREET,11207,305,Brooklyn,3809,20,-73.89122772,40.66635895
3084773,531,BRADFORD STREET,11207,305,Brooklyn,3810,8,-73.89015198,40.66588974
3084850,383,CHRISTOPHER AVENUE,11212,316,Brooklyn,3812,18,-73.90384674,40.66302109
3085089,596,VERMONT STREET,11207,305,Brooklyn,3824,33,-73.8923111,40.66460037
3085131,588,WYONA STREET,11207,305,Brooklyn,3825,45,-73.89121246,40.66407013
3085137,603,WYONA STREET,11207,305,Brooklyn,3826,1,-73.89058685,40.66381073
3085154,564,BRADFORD STREET,11207,305,Brooklyn,3826,33,-73.89048004,40.66487885
3085188,640,MILLER AVENUE,11207,305,Brooklyn,3827,36,-73.88951111,40.66481018
3085394,527,HINSDALE STREET,11207,305,Brooklyn,3835,15,-73.89785767,40.66197968
3085403,552,WILLIAMS AVENUE,11207,305,Brooklyn,3835,33,-73.8975296,40.66215897
3085407,564,WILLIAMS AVENUE,11207,305,Brooklyn,3835,37,-73.89746094,40.66188812
3085428,547,WILLIAMS AVENUE,11207,305,Brooklyn,3836,18,-73.89698792,40.66231918
3085493,558,RIVERDALE AVENUE,11207,305,Brooklyn,3838,34,-73.89524078,40.66275024
3085618,651,VERMONT STREET,11207,305,Brooklyn,3842,10,-73.89137268,40.66321182
3085621,643,VERMONT STREET,11207,305,Brooklyn,3842,14,-73.89143372,40.66342163
3085627,461,NEW LOTS AVENUE,11207,305,Brooklyn,3842,23,-73.89082336,40.66307831
3085996,911,MOTHER GASTON BOULEVARD,11212,316,Brooklyn,3868,13,-73.90302277,40.65604019
3086047,733,HINSDALE STREET,11207,305,Brooklyn,3875,4,-73.89650726,40.65671921
3086553,1,ELTON STREET,11208,305,Brooklyn,3909,8,-73.88536072,40.68363953
3087668,248,ARLINGTON AVENUE,11208,305,Brooklyn,3940,6,-73.88556671,40.68048859
3087757,124,VAN SICLEN AVENUE,11207,305,Brooklyn,3946,28,-73.8917923,40.67733002
3088165,230,HIGHLAND PLACE,11208,305,Brooklyn,3958,46,-73.88101959,40.67956924
3088190,178,HALE AVENUE,11208,305,Brooklyn,3959,33,-73.88036346,40.68078995
3088195,194,HALE AVENUE,11208,305,Brooklyn,3959,38,-73.88027954,40.68045044
3088610,282,ASHFORD STREET,11207,305,Brooklyn,3983,20,-73.88580322,40.67552185
3088811,295,SCHENCK AVENUE,11207,305,Brooklyn,3996,4,-73.88838959,40.6736412
3088948,445,LINWOOD STREET,11208,305,Brooklyn,4003,4,-73.88247681,40.67451096
3089437,425,JEROME STREET,11207,305,Brooklyn,4030,3,-73.88596344,40.67129898
3089506,534,CLEVELAND STREET,11208,305,Brooklyn,4032,36,-73.8839035,40.67142868
3089536,455,ELTON STREET,11208,305,Brooklyn,4034,6,-73.8826828,40.67192078
3089610,816,BELMONT AVENUE,11208,305,Brooklyn,4038,15,-73.87928772,40.67288971
3089845,551,SHEPHERD AVENUE,11208,305,Brooklyn,4053,12,-73.87970734,40.67090988
3089921,311,MONTAUK AVENUE,11208,305,Brooklyn,4056,4,-73.87687683,40.67100906
3089924,305,MONTAUK AVENUE,11208,305,Brooklyn,4056,8,-73.87692261,40.67118835
3090478,655,WARWICK STREET,11207,305,Brooklyn,4079,11,-73.88392639,40.66685104
3090641,659,MILLER AVENUE,11207,305,Brooklyn,4087,9,-73.88883972,40.66442871
3090681,780,LIVONIA AVENUE,11207,305,Brooklyn,4088,20,-73.88802338,40.66542053
3090700,563,NEW LOTS AVENUE,11207,305,Brooklyn,4088,51,-73.88791656,40.6643486
3090877,36,EUCLID AVENUE,11208,305,Brooklyn,4104,46,-73.87563324,40.68772125
3090958,19,COX PLACE,11208,305,Brooklyn,4105,110,-73.87406921,40.68738174
3091540,347,RIDGEWOOD AVENUE,11208,305,Brooklyn,4115,52,-73.87606049,40.68471909
3091849,178,NICHOLS AVENUE,11208,305,Brooklyn,4121,57,-73.86934662,40.68638992
3092110,174,CHESTNUT STREET,11208,305,Brooklyn,4127,42,-73.87599182,40.68368912
3092132,201,CHESTNUT STREET,11208,305,Brooklyn,4128,1,-73.8752594,40.68302917
3093195,86,FOUNTAIN AVENUE,11208,305,Brooklyn,4154,86,-73.8763504,40.67807007
3093555,87,HILL STREET,11208,305,Brooklyn,4170,37,-73.87006378,40.67919159
3093560,73,HILL STREET,11208,305,Brooklyn,4170,42,-73.8704834,40.67913055
3093563,140,MC KINLEY AVENUE,11208,305,Brooklyn,4170,109,-73.87046814,40.67942047
3093989,120,SHERIDAN AVENUE,11208,305,Brooklyn,4181,43,-73.86765289,40.67967987
3094035,460,GRANT AVENUE,11208,305,Brooklyn,4182,48,-73.86669159,40.67948914
3094045,471,GRANT AVENUE,11208,305,Brooklyn,4183,1,-73.8660965,40.67926025
3094346,1097,GLENMORE AVENUE,11208,305,Brooklyn,4201,1,-73.86844635,40.67739868
3094385,493,LINCOLN AVENUE,11208,305,Brooklyn,4202,5,-73.86749268,40.67797089
3094389,483,LINCOLN AVENUE,11208,305,Brooklyn,4202,9,-73.86753845,40.67818832
3094422,189,SHERIDAN AVENUE,11208,305,Brooklyn,4203,6,-73.866539,40.6780014
3094954,909,BELMONT AVENUE,11208,305,Brooklyn,4228,38,-73.87529755,40.67380905
3095200,568,LINCOLN AVENUE,11208,305,Brooklyn,4237,26,-73.86743164,40.67536926
3095298,894,BELMONT AVENUE,11208,305,Brooklyn,4245,24,-73.87597656,40.67329025
3095581,624,LINCOLN AVENUE,11208,305,Brooklyn,4254,37,-73.86707306,40.67391968
3095617,327,MILFORD STREET,11208,305,Brooklyn,4262,9,-73.8759613,40.6711998
3095619,317,MILFORD STREET,11208,305,Brooklyn,4262,13,-73.87600708,40.67137146
3095633,584,LOGAN STREET,11208,305,Brooklyn,4262,37,-73.8757019,40.67161942
3095641,1139,BLAKE AVENUE,11208,305,Brooklyn,4262,53,-73.8756485,40.67087936
3095790,670,HEMLOCK STREET,11208,305,Brooklyn,4268,38,-73.86860657,40.67245102
3095803,1295,BLAKE AVENUE,11208,305,Brooklyn,4268,57,-73.86889648,40.67185974
3095815,661,HEMLOCK STREET,11208,305,Brooklyn,4269,13,-73.86808777,40.67269897
3095965,1140,BLAKE AVENUE,11208,305,Brooklyn,4277,21,-73.87554932,40.6704483
3096405,694,PENNSYLVANIA AVENUE,11207,305,Brooklyn,4298,32,-73.89237213,40.66041946
3096412,714,PENNSYLVANIA AVENUE,11207,305,Brooklyn,4298,43,-73.89203644,40.6599884
3096495,657,PENNSYLVANIA AVENUE,11207,305,Brooklyn,4299,70,-73.89234161,40.66133881
3096602,710,WYONA STREET,11207,305,Brooklyn,4301,48,-73.88947296,40.661129
3096700,700,MILLER AVENUE,11207,305,Brooklyn,4303,13,-73.88894653,40.66308975
3096792,719,MILLER AVENUE,11207,305,Brooklyn,4304,71,-73.88816833,40.66294098
3096814,770,HENDRIX STREET,11207,305,Brooklyn,4305,41,-73.88635254,40.66250992
3096816,774,HENDRIX STREET,11207,305,Brooklyn,4305,43,-73.88625336,40.66239929
3097089,700,ESSEX STREET,11208,305,Brooklyn,4315,24,-73.8795929,40.6664505
3097330,741,PENNSYLVANIA AVENUE,11207,305,Brooklyn,4323,52,-73.89096069,40.65948868
3097400,751,WYONA STREET,11207,305,Brooklyn,4326,38,-73.8884201,40.66036987
3097409,725,WYONA STREET,11207,305,Brooklyn,4326,47,-73.88881683,40.66091919
3097514,757,SCHENCK AVENUE,11207,305,Brooklyn,4331,45,-73.88411713,40.66184998
3098342,711,SHEPHERD AVENUE,11208,305,Brooklyn,4453,62,-73.87821198,40.66695023
3098388,461,BERRIMAN STREET,11208,305,Brooklyn,4454,60,-73.87731171,40.66719055
3098429,465,ATKINS AVENUE,11208,305,Brooklyn,4455,57,-73.87638092,40.66738129
3098461,419,MONTAUK AVENUE,11208,305,Brooklyn,4456,64,-73.87574005,40.66796875
3098470,393,MONTAUK AVENUE,11208,305,Brooklyn,4456,78,-73.87621307,40.66860962
3098958,958,CRESCENT STREET,11208,305,Brooklyn,4528,31,-73.86746979,40.66402054
3099711,73,EAST   51 STREET,11203,317,Brooklyn,4605,78,-73.92999268,40.66027832
3099880,141,EAST 91 STREET,11212,317,Brooklyn,4610,68,-73.9274826,40.66106033
3099892,126,EAST   93 STREET,11212,317,Brooklyn,4611,13,-73.92664337,40.66183853
3100154,155,ROCKAWAY PARKWAY,11212,317,Brooklyn,4616,52,-73.92192078,40.66320038
3100166,119,ROCKAWAY PARKWAY,11212,317,Brooklyn,4616,67,-73.9225769,40.66381073
3100211,136,EAST 52 STREET,11203,317,Brooklyn,4621,16,-73.92936707,40.65782166
3100498,1024,WINTHROP STREET,11212,317,Brooklyn,4628,3,-73.92532349,40.66022873
3100505,1042,WINTHROP STREET,11212,317,Brooklyn,4628,10,-73.92492676,40.6604805
3100592,217,EAST 93 STREET,11212,317,Brooklyn,4629,64,-73.92418671,40.66032028
3100637,225,EAST   94 STREET,11212,317,Brooklyn,4630,59,-73.92315674,40.66049957
3100663,204,EAST 96 STREET,11212,317,Brooklyn,4631,22,-73.92224121,40.6613884
3100815,763,LENOX ROAD,11203,317,Brooklyn,4636,32,-73.9315033,40.65542984
3100905,835,LENOX ROAD,11203,317,Brooklyn,4639,30,-73.92861176,40.65570068
3100955,121,EAST   54 STREET,11203,317,Brooklyn,4641,37,-73.926651,40.65608978
3101080,280,EAST 92 STREET,11212,317,Brooklyn,4646,10,-73.92384338,40.65839005
3101137,306,EAST 93 STREET,11212,317,Brooklyn,4647,17,-73.9227066,40.65830994
3101231,285,EAST   95 STREET,11212,317,Brooklyn,4650,79,-73.92093658,40.65967178
3101599,46,EAST 57 STREET,11203,317,Brooklyn,4662,15,-73.92423248,40.65505981
3101879,1118,LENOX ROAD,11212,317,Brooklyn,4670,47,-73.91900635,40.65871048
3101948,386,ROCKAWAY PARKWAY,11212,317,Brooklyn,4671,122,-73.91758728,40.65839005
3101985,387,ROCKAWAY PARKWAY,11212,317,Brooklyn,4672,50,-73.91680145,40.65863037
3101998,349,ROCKAWAY PARKWAY,11212,317,Brooklyn,4672,64,-73.91755676,40.65930939
3102056,4805,CHURCH AVENUE,11203,317,Brooklyn,4674,43,-73.93212128,40.6518898
3102057,4801,CHURCH AVENUE,11203,317,Brooklyn,4674,44,-73.93219757,40.6518898
3102071,355,EAST 48 STREET,11203,317,Brooklyn,4674,64,-73.93221283,40.65317154
3102099,397,EAST   49 STREET,11203,317,Brooklyn,4675,45,-73.93115997,40.65219879
3102170,336,EAST 52 STREET,11203,317,Brooklyn,4677,27,-73.92881012,40.65261841
3102320,886,LINDEN BOULEVARD,11203,317,Brooklyn,4681,8,-73.92508698,40.65388107
3102396,128,EAST   57 STREET,11203,317,Brooklyn,4682,126,-73.9240036,40.65296173
3102520,455,EAST 92 STREET,11212,317,Brooklyn,4689,38,-73.91989899,40.65531921
3102567,480,EAST   94 STREET,11212,317,Brooklyn,4690,61,-73.9181366,40.65531921
3102638,494,EAST 96 STREET,11212,317,Brooklyn,4692,40,-73.91606903,40.65584946
3102654,491,EAST 95 STREET,11212,317,Brooklyn,4692,60,-73.91655731,40.65573883
3102662,463,EAST 95 STREET,11212,317,Brooklyn,4692,72,-73.91712952,40.65625
3102678,9601,CHURCH AVENUE,11212,317,Brooklyn,4693,10,-73.91555023,40.65594864
3102729,1164,WILLMOHR STREET,11212,317,Brooklyn,4694,48,-73.91560364,40.65810013
3102886,915,UTICA AVENUE,11203,317,Brooklyn,4698,52,-73.92991638,40.65076065
3102896,378,EAST   52 STREET,11203,317,Brooklyn,4699,15,-73.92868805,40.6515007
3102928,5206,CHURCH AVENUE,11203,317,Brooklyn,4700,3,-73.92816162,40.65196991
3103048,299,EAST   54 STREET,11203,317,Brooklyn,4702,57,-73.92616272,40.65142822
3103204,109,EAST   59 STREET,11203,317,Brooklyn,4707,19,-73.92138672,40.65151978
3103485,565,EAST   93 STREET,11236,317,Brooklyn,4714,23,-73.91664124,40.65354919
3103923,416,EAST   54 STREET,11203,317,Brooklyn,4725,36,-73.9263916,40.64860153
3105118,632,EAST   96 STREET,11236,317,Brooklyn,4755,65,-73.91300201,40.6531105
3105121,642,EAST   96 STREET,11236,317,Brooklyn,4755,68,-73.91280365,40.65293884
3105180,659,ROCKAWAY PARKWAY,11236,317,Brooklyn,4757,11,-73.91101837,40.65340042
3105450,607,EAST   53 STREET,11203,317,Brooklyn,4764,40,-73.92642212,40.64479065
3105893,5300,CLARENDON ROAD,11203,317,Brooklyn,4774,1,-73.92645264,40.64434814
3106770,545,BROOKLYN AVENUE,11225,309,Brooklyn,4798,10,-73.94513702,40.66104126
3106807,562,MAPLE STREET,11203,309,Brooklyn,4799,13,-73.94203186,40.66114044
3106809,568,MAPLE STREET,11203,309,Brooklyn,4799,15,-73.94184875,40.66115952
3106816,590,MAPLE STREET,11203,309,Brooklyn,4799,24,-73.94122314,40.66119003
3106827,552,ALBANY AVENUE,11203,309,Brooklyn,4799,39,-73.94017792,40.66122055
3106990,470,MIDWOOD STREET,11225,309,Brooklyn,4803,12,-73.94490814,40.66025162
3107498,691,WINTHROP STREET,11203,309,Brooklyn,4823,48,-73.93772888,40.6581192
3108043,259,EAST   46 STREET,11203,317,Brooklyn,4851,35,-73.93441772,40.65565109
3108052,1361,NOSTRAND AVENUE,11226,317,Brooklyn,4853,12,-73.94943237,40.65340042
3108054,1363,NOSTRAND AVENUE,11226,317,Brooklyn,4853,14,-73.9495163,40.65354156
3108484,651,LINDEN BOULEVARD,11203,317,Brooklyn,4867,36,-73.93435669,40.65385056
3108817,3715,CHURCH AVENUE,11203,317,Brooklyn,4874,32,-73.94217682,40.65148163
3109611,3824,CHURCH AVENUE,11203,317,Brooklyn,4892,10,-73.94107819,40.65097046
3109912,454,EAST   46 STREET,11203,317,Brooklyn,4899,25,-73.93444824,40.65056992
3109928,447,EAST   45 STREET,11203,317,Brooklyn,4899,53,-73.93483734,40.65076065
3109929,439,EAST   45 STREET,11203,317,Brooklyn,4899,55,-73.93483734,40.65087128
3110155,388,EAST   34 STREET,11203,317,Brooklyn,4904,33,-73.94561768,40.64743042
3110190,329,EAST 34 STREET,11203,317,Brooklyn,4905,73,-73.94521332,40.64875031
3111282,1825,NOSTRAND AVENUE,11226,317,Brooklyn,4947,57,-73.94824219,40.64141083
3111299,1771,NOSTRAND AVENUE,11226,317,Brooklyn,4947,79,-73.94837189,40.64260864
3111621,3613,AVENUE D,11203,317,Brooklyn,4953,39,-73.9420929,40.64160156
3112924,1354,TROY AVENUE,11203,317,Brooklyn,4977,44,-73.93517303,40.63957977
3114131,768,EAST 35 STREET,11210,317,Brooklyn,5009,50,-73.9434433,40.63600922
3114992,483,ROGERS AVENUE,11225,309,Brooklyn,5033,7,-73.95317078,40.66038895
3115281,619,FLATBUSH AVENUE,11225,309,Brooklyn,5037,1,-73.96012115,40.65821838
3115284,609,FLATBUSH AVENUE,11225,309,Brooklyn,5037,6,-73.96015167,40.65848923
3115285,607,FLATBUSH AVENUE,11225,309,Brooklyn,5037,8,-73.96016693,40.65858078
3115656,22,HAWTHORNE STREET,11225,309,Brooklyn,5045,16,-73.95941925,40.65707016
3115710,594,ROGERS AVENUE,11225,309,Brooklyn,5046,54,-73.95348358,40.65718079
3115811,56,WINTHROP STREET,11225,309,Brooklyn,5048,31,-73.95826721,40.65634918
3116066,293,CLARKSON AVENUE,11226,309,Brooklyn,5057,57,-73.95027161,40.65562057
3116160,5,EAST 21 STREET,11226,314,Brooklyn,5063,27,-73.96057892,40.65430069
3116241,682,ROGERS AVENUE,11226,317,Brooklyn,5065,61,-73.95326996,40.6547699
3116644,114,LENOX ROAD,11226,317,Brooklyn,5084,24,-73.9553833,40.6534996
3116664,743,ROGERS AVENUE,11226,317,Brooklyn,5085,8,-73.95233154,40.65304947
3116837,245,MARTENSE STREET,11226,317,Brooklyn,5088,63,-73.95085907,40.65185928
3117621,294,EAST 21 STREET,11226,314,Brooklyn,5124,7,-73.9595871,40.64704132
3117757,2297,BEDFORD AVENUE,11226,317,Brooklyn,5127,85,-73.95545959,40.6476593
3117781,2501,TILDEN AVENUE,11226,317,Brooklyn,5128,38,-73.95401001,40.64691925
3117904,2409,BEVERLY ROAD,11226,317,Brooklyn,5135,39,-73.95430756,40.64505005
3118208,705,CONEY ISLAND AVENUE,11218,314,Brooklyn,5141,134,-73.96872711,40.6403389
3118659,380,EAST 14 STREET,11226,314,Brooklyn,5156,10,-73.96537781,40.64049149
3119021,2415,CLARENDON ROAD,11226,317,Brooklyn,5168,36,-73.95394135,40.64316177
3119599,1154,FLATBUSH AVENUE,11226,314,Brooklyn,5186,93,-73.95751953,40.64199829
3119746,2575,BEDFORD AVENUE,11226,317,Brooklyn,5190,46,-73.95397949,40.64073944
3119952,1139,ROGERS AVENUE,11226,317,Brooklyn,5193,67,-73.95123291,40.64210129
3120018,2914,CLARENDON ROAD,11226,317,Brooklyn,5195,5,-73.94920349,40.64294052
3120374,2501,NEWKIRK AVENUE,11226,317,Brooklyn,5212,24,-73.95294952,40.63999176
3120434,1193,ROGERS AVENUE,11226,317,Brooklyn,5214,1,-73.95108032,40.64064026
3120627,2117,FOSTER AVENUE,11210,314,Brooklyn,5221,69,-73.95702362,40.63727188
3120774,1276,FLATBUSH AVENUE,11226,314,Brooklyn,5224,131,-73.95446777,40.63888931
3120824,572,EAST 26 STREET,11210,314,Brooklyn,5225,68,-73.95287323,40.63650894
3120905,1300,ROGERS AVENUE,11210,314,Brooklyn,5228,49,-73.95143127,40.63809967
3121025,2018,NOSTRAND AVENUE,11210,314,Brooklyn,5231,1,-73.948349,40.63639069
3121152,618,EAST   15 STREET,11226,314,Brooklyn,5235,20,-73.96349335,40.63470078
3122940,1003,39 STREET,11219,312,Brooklyn,5288,86,-73.99253082,40.64466095
3123066,1228,  39 STREET,11218,312,Brooklyn,5293,15,-73.98774719,40.64120865
3123251,1364,40 STREET,11218,312,Brooklyn,5297,32,-73.98547363,40.63893127
3125152,3419,14 AVENUE,11218,312,Brooklyn,5351,62,-73.98143768,40.64162064
3125270,555,MC DONALD AVENUE,11218,312,Brooklyn,5353,58,-73.97866058,40.64078903
3125271,553,MC DONALD AVENUE,11218,312,Brooklyn,5353,59,-73.97868347,40.64085007
3125608,813,AVENUE C,11218,312,Brooklyn,5360,46,-73.97073364,40.64147949
3125846,1532,  38 STREET,11218,312,Brooklyn,5366,17,-73.98068237,40.63788986
3125914,3623,15 AVENUE,11218,312,Brooklyn,5368,1,-73.98040009,40.6390419
3126270,326,EAST 9 STREET,11218,312,Brooklyn,5377,17,-73.97042084,40.64057922
3126705,305,DITMAS AVENUE,11218,312,Brooklyn,5387,50,-73.97572327,40.63602066
3131792,1763,60 STREET,11204,312,Brooklyn,5511,51,-73.9876709,40.62258148
3133999,6517,20 AVENUE,11204,311,Brooklyn,5556,3,-73.98606873,40.61595154
3135338,1115,40 STREET,11218,312,Brooklyn,5585,68,-73.9905777,40.6425705
3135384,4019,  10 AVENUE,11219,312,Brooklyn,5587,3,-73.9936676,40.64353943
3135574,913,  42 STREET,11219,312,Brooklyn,5590,76,-73.99624634,40.6441803
3140651,1140,  58 STREET,11219,312,Brooklyn,5703,18,-74.00090027,40.63183975
3141665,6211,14 AVENUE,11219,311,Brooklyn,5734,6,-73.99755096,40.62596893
3141741,6302,11 AVENUE,11219,310,Brooklyn,5737,37,-74.00504303,40.62985992
3141750,6324,11 AVENUE,11219,310,Brooklyn,5737,47,-74.00544739,40.62947083
3141758,1045,  64 STREET,11219,310,Brooklyn,5737,58,-74.00608826,40.63000107
3142890,6719,13 AVENUE,11219,310,Brooklyn,5768,6,-74.00287628,40.62427902
3143201,6808,  13 AVENUE,11219,310,Brooklyn,5774,35,-74.00390625,40.62408066
3143425,438,60 STREET,11220,307,Brooklyn,5782,20,-74.01757813,40.64002991
3143463,6023,5 AVENUE,11220,307,Brooklyn,5783,1,-74.01643372,40.63883972
3143590,714,  60 STREET,11220,307,Brooklyn,5785,11,-74.01152802,40.63637161
3143690,360,61 STREET,11220,307,Brooklyn,5790,27,-74.01981354,40.64049911
3143995,417,  63 STREET,11220,307,Brooklyn,5800,68,-74.01941681,40.63896179
3145156,271,BAY RIDGE AVENUE,11220,310,Brooklyn,5862,55,-74.02631378,40.63594055
3145222,6814,4 AVENUE,11220,310,Brooklyn,5863,44,-74.02366638,40.6350708
3145373,6823,6 AVENUE,11220,310,Brooklyn,5866,1,-74.01822662,40.6323204
3145405,627,BAY RIDGE AVENUE,11220,310,Brooklyn,5866,74,-74.01759338,40.63216019
3147295,262,72 STREET,11209,310,Brooklyn,5907,33,-74.02781677,40.63349915
3147330,7207,3 AVENUE,11209,310,Brooklyn,5908,8,-74.02674866,40.63320923
3150981,575,80 STREET,11209,310,Brooklyn,5981,47,-74.02203369,40.62464905
3153129,367,  86 STREET,11209,310,Brooklyn,6034,56,-74.02883148,40.62327957
3157000,1121,71ST STREET,11228,310,Brooklyn,6165,69,-74.00865936,40.62503815
3157080,7006,14 AVENUE,11228,310,Brooklyn,6167,39,-74.00258636,40.62179947
3157529,1105,  72 STREET,11228,310,Brooklyn,6176,1,-74.00969696,40.6246109
3160319,1902,BAY RIDGE PARKWAY,11204,311,Brooklyn,6228,6,-73.99404907,40.61186981
3161433,1754,77 STREET,11214,311,Brooklyn,6248,28,-73.99841309,40.61268997
3162088,7802,NEW UTRECHT AVENUE,11214,311,Brooklyn,6259,34,-74.00092316,40.61343002
3165408,2027,85 STREET,11214,311,Brooklyn,6334,62,-73.99667358,40.60490036
3168634,1800,BATH AVENUE,11214,311,Brooklyn,6436,28,-74.00618744,40.60359955
3168717,8789,  19 AVENUE,11214,311,Brooklyn,6439,21,-74.00411987,40.60203171
3171511,1456,CONEY ISLAND AVENUE,11230,312,Brooklyn,6536,11,-73.96499634,40.62192917
3173210,1436,WEST    8 STREET,11204,311,Brooklyn,6576,22,-73.98267365,40.61182022
3174719,1650,EAST 2 STREET,11230,312,Brooklyn,6608,43,-73.97234344,40.60948944
3175704,1671,WEST    4 STREET,11223,311,Brooklyn,6628,49,-73.97717285,40.60659027
3176898,1717,WEST    6 STREET,11223,311,Brooklyn,6651,84,-73.97884369,40.60546875
3177556,1719,EAST    8 STREET,11223,315,Brooklyn,6665,25,-73.96443939,40.60705185
3177642,2092,CONEY ISLAND AVENUE,11223,315,Brooklyn,6666,131,-73.96212769,40.60623932
3177787,1891,WEST   12 STREET,11223,311,Brooklyn,6669,48,-73.98377228,40.60076904
3179440,1921,AVENUE I,11230,314,Brooklyn,6703,1,-73.95729828,40.62831116
3179919,1026,EAST   14 STREET,11230,314,Brooklyn,6715,16,-73.96247101,40.62434006
3181705,1857,CONEY ISLAND AVENUE,11230,314,Brooklyn,6758,86,-73.96240234,40.61203003
3182290,1614,EAST 12 STREET,11229,315,Brooklyn,6774,12,-73.96157837,40.60961151
3183833,1112,AVENUE R,11223,315,Brooklyn,6817,4,-73.96122742,40.60515976
3186102,122,BAY   38 STREET,11214,311,Brooklyn,6877,64,-73.99072266,40.59603882
3188683,2802,WEST   36 STREET,11224,313,Brooklyn,7004,11,-74.0022583,40.57674026
3188690,2832,WEST   36 STREET,11224,313,Brooklyn,7004,21,-74.00232697,40.57616043
3188691,2836,WEST   36 STREET,11224,313,Brooklyn,7004,22,-74.00231171,40.57609177
3188694,2844,WEST   36 STREET,11224,313,Brooklyn,7004,25,-74.00227356,40.57588959
3188725,2842,WEST   35 STREET,11224,313,Brooklyn,7005,22,-74.00122833,40.57606125
3188867,2803,MERMAID AVENUE,11224,313,Brooklyn,7011,44,-73.99458313,40.57579041
3189039,2846,WEST   17 STREET,11224,313,Brooklyn,7020,27,-73.98531342,40.57772064
3189046,2862,WEST   17 STREET,11224,313,Brooklyn,7020,34,-73.98523712,40.57733917
3189558,1904,MERMAID AVENUE,11224,313,Brooklyn,7060,11,-73.98600769,40.57624817
3189602,1412,MERMAID AVENUE,11224,313,Brooklyn,7064,2,-73.98197174,40.57670975
3189915,110,AVENUE S,11223,311,Brooklyn,7079,5,-73.98165894,40.60054016
3189959,1983,WEST   10 STREET,11223,311,Brooklyn,7079,51,-73.98150635,40.59878922
3190174,169,AVENUE T,11223,311,Brooklyn,7082,52,-73.97884369,40.59891129
3190528,1942,EAST 8 STREET,11223,315,Brooklyn,7089,26,-73.96404266,40.60163879
3190539,1984,EAST 8 STREET,11223,315,Brooklyn,7089,42,-73.96385956,40.60074997
3192620,2151,WEST    5 STREET,11223,315,Brooklyn,7122,64,-73.9759903,40.59540939
3192866,420,AVENUE U,11223,315,Brooklyn,7130,2,-73.96843719,40.59730148
3193094,2102,EAST 8 STREET,11223,315,Brooklyn,7134,12,-73.96311951,40.59783936
3193186,902,AVENUE U,11223,315,Brooklyn,7136,1,-73.96192169,40.5979805
3196431,225,NEPTUNE AVENUE,11235,313,Brooklyn,7263,3,-73.96170044,40.58184052
3196537,714,BANNER AVENUE,11235,313,Brooklyn,7264,45,-73.96077728,40.5831604
3199767,2622,OCEAN AVENUE,11229,315,Brooklyn,7352,39,-73.95143127,40.5974617
3199860,2113,AVENUE V,11229,315,Brooklyn,7354,36,-73.94937897,40.59767914
3204985,1721,VOORHIES AVENUE,11235,315,Brooklyn,7462,40,-73.95124817,40.58623886
3205707,1287,OCEAN AVENUE,11230,314,Brooklyn,7548,6,-73.95697784,40.63082123
3205715,2004,GLENWOOD ROAD,11210,314,Brooklyn,7548,43,-73.95733643,40.63275146
3206522,1755,BROOKLYN AVENUE,11210,318,Brooklyn,7582,13,-73.94125366,40.63024139
3217127,3813,KINGS HIGHWAY,11234,318,Brooklyn,7815,14,-73.93786621,40.62231064
3217542,1495,EAST   46 STREET,11234,318,Brooklyn,7826,20,-73.93102264,40.62432098
3224089,644,EAST   89 STREET,11236,318,Brooklyn,7993,59,-73.90937805,40.64176178
3224132,1106,REMSEN AVENUE,11236,318,Brooklyn,7994,58,-73.90843201,40.64191055
3228697,903,EAST 95 STREET,11236,318,Brooklyn,8128,16,-73.90766907,40.64770126
3231607,1396,EAST 92 STREET,11236,318,Brooklyn,8237,67,-73.8996582,40.63661957
3244850,3039,BRIGHTON 4 STREET,11235,313,Brooklyn,8674,86,-73.96338654,40.57830811
3245071,312,BRIGHTON BEACH AVENUE,11235,313,Brooklyn,8686,58,-73.96369934,40.57683945
3245425,105,BRIGHTON 11 STREET,11235,313,Brooklyn,8709,95,-73.9573288,40.5800209
3248018,97,NEPTUNE AVENUE,11235,313,Brooklyn,8812,121,-73.95761108,40.5826683
3256647,644,NEW YORK AVENUE,11203,309,Brooklyn,4814,7502,-73.94780731,40.65850067
3259609,1186,NOSTRAND AVENUE,11225,309,Brooklyn,5044,42,-73.95068359,40.6585083
3321245,642,DRIGGS AVENUE,11211,301,Brooklyn,2352,25,-73.95881653,40.71504974
3321349,405,BROADWAY,11211,301,Brooklyn,2464,33,-73.95366669,40.70721817
3321454,177,HURON STREET,11222,301,Brooklyn,2523,57,-73.95411682,40.7333107
3321738,2828,STILLWELL AVENUE,11224,313,Brooklyn,7023,17,-73.98220825,40.57844162
3324579,99,ALBANY AVENUE,11213,308,Brooklyn,1334,175,-73.93847656,40.67734909
3324999,986,GREENE AVENUE,11221,303,Brooklyn,1622,34,-73.92830658,40.6907692
3325864,129,GRAHAM AVENUE,11206,301,Brooklyn,3070,20,-73.94328308,40.70635986
3326557,390,CHESTER STREET,11212,316,Brooklyn,3588,1,-73.91005707,40.66141129
3327323,1310,FLATBUSH AVENUE,11210,314,Brooklyn,5225,37,-73.95359039,40.63806152
3327450,5709,  13 AVENUE,11219,312,Brooklyn,5698,6,-73.99680328,40.63011932
3327808,1466,CONEY ISLAND AVENUE,11230,312,Brooklyn,6536,13,-73.96494293,40.62163162
3327943,182,GRAHAM AVENUE,11206,301,Brooklyn,3053,8,-73.94299316,40.70798111
3327990,791,FLUSHING AVENUE,11206,301,Brooklyn,3127,32,-73.94116974,40.70119095
3328472,105,  16 STREET,11215,307,Brooklyn,1046,56,-73.99289703,40.6667099
3331870,1035,RUTLAND ROAD,11212,317,Brooklyn,4598,57,-73.92550659,40.66355133
3336214,800,ROGERS AVENUE,11226,317,Brooklyn,5090,49,-73.95282745,40.65122986
3338008,509,HANCOCK STREET,11233,303,Brooklyn,1655,1,-73.93505859,40.68437958
3338457,159,SUYDAM STREET,11221,304,Brooklyn,3208,52,-73.92668152,40.69945908
3340322,1007,EAST   86 STREET,11236,318,Brooklyn,8038,7501,-73.90635681,40.63655853
3340324,1003,EAST   86 STREET,11236,318,Brooklyn,8038,7501,-73.90635681,40.63655853
3340424,911,EAST   76 STREET,11236,318,Brooklyn,8013,7501,-73.9152832,40.63317108
3340425,919,EAST   76 STREET,11236,318,Brooklyn,8013,7501,-73.9152832,40.63317108
3341494,8602,AVENUE L,11236,318,Brooklyn,8065,7501,-73.90284729,40.63346863
3341990,272,DIVISION AVENUE,11211,301,Brooklyn,2201,32,-73.95527649,40.70684052
3342269,120,GROVE STREET,11221,304,Brooklyn,3323,17,-73.92017365,40.69345093
3342410,290,SUMPTER STREET,11233,316,Brooklyn,1527,23,-73.91264343,40.68059921
3344586,1499,EAST   46 STREET,11234,318,Brooklyn,7826,20,-73.93102264,40.62432098
3348081,4811,   5 AVENUE,11220,307,Brooklyn,775,4,-74.00930786,40.64572906
3348366,40,CHRISTOPHER AVENUE,11212,316,Brooklyn,3692,20,-73.90688324,40.67266846
3350169,325,SHEPHERD AVENUE,11208,305,Brooklyn,3973,7,-73.88126373,40.67715073
3378134,739,DE KALB AVENUE,11216,303,Brooklyn,1775,55,-73.94674683,40.69213867
3378488,1975,PACIFIC STREET,11233,308,Brooklyn,1339,172,-73.92307281,40.6764183
3388173,1843,PITKIN AVENUE,11212,316,Brooklyn,3709,136,-73.90487671,40.6708107
3388416,870,KNICKERBOCKER AVENUE,11207,304,Brooklyn,3430,33,-73.90535736,40.69124985
3388926,586,LIBERTY AVENUE,11207,305,Brooklyn,3981,10,-73.88806152,40.6754303
3389001,554,  60 STREET,11220,307,Brooklyn,5783,30,-74.0149765,40.63845825
3389513,2767,ATLANTIC AVENUE,11207,305,Brooklyn,3946,45,-73.89206696,40.67654037
3389633,2802,ALBEMARLE ROAD,11226,317,Brooklyn,5130,206,-73.95102692,40.64788055
3389656,108,EAST   28 STREET,11226,317,Brooklyn,5138,112,-73.95121765,40.6465683
3389884,139,ALBANY AVENUE,11213,308,Brooklyn,1346,6,-73.93850708,40.67593002
3390168,175,MONROE STREET,11216,303,Brooklyn,1812,168,-73.95187378,40.68555069
3390390,73,COOPER STREET,11207,304,Brooklyn,3433,58,-73.909729,40.68571091
3391227,223,MALCOLM X BOULEVARD,11221,303,Brooklyn,1657,107,-73.92923737,40.68537903
3391329,227A,MALCOLM X BOULEVARD,11221,303,Brooklyn,1657,3,-73.92919922,40.68516922
3391838,99,STOCKTON STREET,11206,303,Brooklyn,1743,76,-73.94883728,40.69641113
3391847,87,STOCKTON STREET,11206,303,Brooklyn,1743,82,-73.94924164,40.69631958
3392173,18,GOODWIN PLACE,11221,304,Brooklyn,3293,18,-73.92450714,40.69166946
3392174,22,GOODWIN PLACE,11221,304,Brooklyn,3293,19,-73.92443848,40.69163132
3392426,891,GREENE AVENUE,11221,303,Brooklyn,1616,75,-73.93202972,40.69083023
3392677,128,OSBORN STREET,11212,316,Brooklyn,3523,111,-73.90899658,40.66928101
3392773,427,HERKIMER STREET,11213,303,Brooklyn,1864,46,-73.93921661,40.67929077
3393226,1355,DECATUR STREET,11237,304,Brooklyn,3431,28,-73.90447998,40.6922493
3396016,1357,DECATUR STREET,11237,304,Brooklyn,3431,128,-73.90444183,40.69229889
3396629,301,POWELL STREET,11212,316,Brooklyn,3763,10,-73.90302277,40.66724014
3396907,146,JEFFERSON STREET,11206,304,Brooklyn,3172,26,-73.92993164,40.70021057
3399216,173,BUFFALO AVENUE,11213,308,Brooklyn,1363,8,-73.92474365,40.67340088
3399384,128,SUMPTER STREET,11233,303,Brooklyn,1524,28,-73.9197464,40.67988968
3413707,1346,MYRTLE AVENUE,11221,304,Brooklyn,3266,33,-73.92205048,40.69826889
3418399,1660,BROADWAY,11207,316,Brooklyn,1503,23,-73.91339111,40.68424988
4002606,45-36,40 STREET,11104,402,Queens,194,49,-73.9247818,40.74264908
4003853,34-19,9 STREET,11106,401,Queens,324,19,-73.93953705,40.76454926
4004009,35-31,CRESCENT STREET,11106,401,Queens,339,10,-73.93237305,40.75883865
4004934,40-29,23 STREET,11101,401,Queens,408,13,-73.93988037,40.75345993
4008480,30-33,31 STREET,11102,401,Queens,615,24,-73.92182922,40.76588058
4009026,30-27,33 STREET,11102,401,Queens,625,36,-73.92009735,40.76533127
4016611,35-19,DITMARS BOULEVARD,11105,401,Queens,824,66,-73.90808868,40.77462006
4017441,29-06,24 AVENUE,11102,401,Queens,840,46,-73.91629791,40.77257919
4018301,21-11,27 STREET,11105,401,Queens,857,29,-73.91101837,40.77917099
4018755,25-18,23 AVENUE,11105,401,Queens,864,140,-73.91629791,40.77645111
4027160,34-26,  62 STREET,11377,402,Queens,1189,81,-73.90007782,40.75133133
4028428,53-31,SKILLMAN AVENUE,11377,402,Queens,1238,45,-73.91002655,40.74583054
4028465,40-08,57 STREET,11377,402,Queens,1240,105,-73.90753937,40.74568939
4029843,37-45,75 STREET,11372,403,Queens,1286,14,-73.89035034,40.74779892
4031383,58-44,43 AVENUE,11377,402,Queens,1333,68,-73.90554047,40.7427597
4035147,33-17,82 STREET,11372,403,Queens,1430,57,-73.88497925,40.75502014
4036343,37-23,89 STREET,11372,403,Queens,1477,67,-73.87738037,40.74971008
4036436,37-24,93 STREET,11372,403,Queens,1480,17,-73.87425995,40.75014114
4038793,40-26,BENHAM STREET,11373,404,Queens,1551,24,-73.87477875,40.74797058
4040293,40-19,99 STREET,11368,404,Queens,1608,53,-73.86595154,40.74897003
4040456,97-17,43 AVENUE,11368,404,Queens,1615,41,-73.86586761,40.74649811
4041929,32-40,101 STREET,11369,403,Queens,1695,26,-73.86786652,40.75815964
4042425,33-44,98 STREET,11368,403,Queens,1712,28,-73.87045288,40.75579071
4043013,34-13,99 STREET,11368,403,Queens,1733,46,-73.86876678,40.75492859
4043362,34-22,105 STREET,11368,403,Queens,1744,24,-73.86341095,40.75532913
4045197,87-01,51 AVENUE,11373,404,Queens,1835,95,-73.8764801,40.739151
4045628,91-27,48 AVENUE,11373,404,Queens,1848,25,-73.8730011,40.74192047
4048263,57-33,WALDRON STREET,11368,404,Queens,1960,29,-73.85323334,40.73955154
4048896,104-31,43 AVENUE,11368,404,Queens,1986,167,-73.85957336,40.74837112
4052773,75-36, 113 PLACE,11375,406,Queens,2265,201,-73.8343811,40.71863174
4057123,51-20,CODWISE PLACE,11373,404,Queens,2472,16,-73.88303375,40.73698044
4069616,84-53,DANA COURT,11379,405,Queens,2999,28,-73.86878204,40.72322845
4080490,20-18,HIMROD STREET,11385,405,Queens,3380,22,-73.90973663,40.70975876
4081827,17-11,STANHOPE STREET,11385,405,Queens,3428,47,-73.9153595,40.70613098
4081912,1818,HARMAN STREET,11385,405,Queens,3431,23,-73.91217041,40.70623016
4082098,17-21,MENAHAN STREET,11385,405,Queens,3437,53,-73.91149139,40.70410156
4082388,1671,PALMETTO STREET,11385,405,Queens,3448,52,-73.90953827,40.7013588
4082635,715,SENECA AVENUE,11385,405,Queens,3458,4,-73.90704346,40.70269012
4082716,17-17,PUTNAM AVENUE,11385,405,Queens,3460,47,-73.90625763,40.70106888
4082971,1880,PALMETTO STREET,11385,405,Queens,3469,27,-73.90577698,40.70433044
4083413,2051,GATES AVENUE,11385,405,Queens,3485,47,-73.90466309,40.70729828
4083475,Jun-75,GRANDVIEW AVENUE,11385,405,Queens,3488,5,-73.90377045,40.70763016
4084669,63-46,FRESH POND ROAD,11385,405,Queens,3524,58,-73.89987946,40.71060944
4085242,60-86,69 AVENUE,11385,405,Queens,3536,17,-73.89600372,40.70289993
4085254,60-91,70 AVENUE,11385,405,Queens,3536,31,-73.89573669,40.70267105
4085423,16-45,PUTNAM AVENUE,11385,405,Queens,3545,66,-73.90792847,40.69944
4085534,16-66,JEFFERSON AVENUE,11385,405,Queens,3548,46,-73.90589142,40.69895935
4085753,1062,CYPRESS AVENUE,11385,405,Queens,3554,55,-73.90097809,40.69680023
4086051,1075,CYPRESS AVENUE,11385,405,Queens,3567,7,-73.9001236,40.69675064
4086057,1728,SUMMERFIELD STREET,11385,405,Queens,3567,24,-73.89958954,40.69726944
4086621,75-01,60 LANE,11385,405,Queens,3585,52,-73.89454651,40.69850922
4087884,61-20,MADISON STREET,11385,405,Queens,3619,27,-73.8963623,40.70709991
4090360,72-14,69 PLACE,11385,405,Queens,3704,25,-73.88186646,40.70137024
4091487,67-39,  75 STREET,11379,405,Queens,3774,63,-73.87724304,40.71163177
4092974,79-45,  78 AVENUE,11385,405,Queens,3818,54,-73.86997986,40.7052803
4098140,116-10,14 ROAD,11356,407,Queens,4067,27,-73.85095978,40.78450012
4099492,22-41,121 STREET,11356,407,Queens,4197,4,-73.84674835,40.77893066
4104819,145-05,21 AVENUE,11357,407,Queens,4631,1,-73.8225174,40.78065109
4108079,144-56,25 DRIVE,11354,407,Queens,4780,36,-73.82225037,40.77503967
4113051,147-11,35 AVENUE,11354,407,Queens,4996,11,-73.81919861,40.76665115
4146285,59-46,156 STREET,11355,407,Queens,6733,61,-73.81253052,40.73936081
4148879,61-12,167 STREET,11365,408,Queens,6894,42,-73.80211639,40.73791122
4183453,88-42,  85 STREET,11421,409,Queens,8915,38,-73.85822296,40.68939972
4190960,92-18,LIBERTY AVENUE,11417,410,Queens,9161,9,-73.84602356,40.67993927
4193773,86-40,123 STREET,11418,409,Queens,9276,80,-73.82774353,40.70112991
4195099,98-09,ATLANTIC AVENUE,11421,409,Queens,9306,106,-73.8446579,40.68965912
4195541,110-01,ATLANTIC AVENUE,11418,409,Queens,9317,28,-73.83579254,40.69218063
4218561,108-42,171 PLACE,11433,412,Queens,10254,26,-73.7840271,40.69800949
4247485,155-09,  78 STREET,11414,410,Queens,11458,78,-73.85527802,40.66352081
4257342,127-02,135 AVENUE,11420,410,Queens,11861,31,-73.81256866,40.66878891
4257343,127-04,135 AVENUE,11420,410,Queens,11861,32,-73.81247711,40.66876984
4258220,146-42,LAKEWOOD AVENUE,11435,412,Queens,11945,43,-73.80055237,40.69253922
4258999,113-08,SUTPHIN BOULEVARD,11435,412,Queens,11966,11,-73.79450226,40.68663025
4259579,114-54,SUTPHIN BOULEVARD,11434,412,Queens,11980,29,-73.7931366,40.68484116
4263340,157-03,BRINKERHOFF AVENUE,11433,412,Queens,12148,45,-73.79311371,40.69187927
4264793,116-65,SUTPHIN BOULEVARD,11434,412,Queens,12203,178,-73.79189301,40.68085861
4265299,121-19,SUTPHIN BOULEVARD,11434,412,Queens,12216,1,-73.79039764,40.67681122
4268570,172-02,LINDEN BOULEVARD,11434,412,Queens,12394,90,-73.77793884,40.69168091
4271764,198-12,LINDEN BOULEVARD,11412,412,Queens,12619,6,-73.75367737,40.69380951
4297822,13-96,BEACH CHANNEL DRIVE,11691,414,Queens,15526,15,-73.75388336,40.60792923
4299005,3-Dec,FRISCO AVENUE,11691,414,Queens,15614,10,-73.74624634,40.60029984
4299664,13-44,DICKENS STREET,11691,414,Queens,15665,33,-73.76019287,40.60760117
4300277,26-Oct,GIPSON STREET,11691,414,Queens,15714,27,-73.75907135,40.60314941
4300323,28-Nov,DICKENS STREET,11691,414,Queens,15716,24,-73.76067352,40.60602951
4300938,23-85,DICKENS STREET,11691,414,Queens,15756,5,-73.76016998,40.60189056
4301495,318,BEACH   32 STREET,11691,414,Queens,15796,41,-73.76447296,40.59627151
4301600,224,BEACH 30 STREET,11691,414,Queens,15805,38,-73.76264954,40.59550095
4301945,175,BEACH 60 STREET,11692,414,Queens,15903,32,-73.78983307,40.59128952
4301997,320,BEACH 67 STREET,11692,414,Queens,15913,49,-73.7957077,40.59170151
4302000,344,BEACH 67 STREET,11692,414,Queens,15913,61,-73.79577637,40.59236908
4302022,67-03,BEACH CHANNEL DRIVE,11692,414,Queens,15915,54,-73.7963562,40.59259033
4307891,63-35, 110 STREET,11375,406,Queens,2182,105,-73.84763336,40.73474884
4311469,137-28,CENTREVILLE STREET,11417,410,Queens,11534,20,-73.83798218,40.67218018
4314622,52-84,  74 STREET,11373,405,Queens,2489,38,-73.88848114,40.7314415
4314836,160-10,  75 ROAD,11366,408,Queens,6835,5,-73.80796051,40.72589111
4314837,160-28,  75 ROAD,11366,408,Queens,6835,12,-73.80757141,40.7259407
4430884,23-44,  31 DRIVE,11106,401,Queens,567,43,-73.92849731,40.76438141
4431052,20-70,STEINWAY STREET,11105,401,Queens,809,58,-73.90355682,40.77524948
4436115,410,BEACH   25 STREET,11691,414,Queens,15774,53,-73.75959778,40.59791183
4449872,39-04, 112 STREET,11368,403,Queens,1784,7501,-73.85505676,40.75247955
4451913,217-19,HILLSIDE AVENUE,11427,413,Queens,10686,1,-73.74725342,40.72861099
4451971,86-10,ATLANTIC AVENUE,11416,409,Queens,9020,5,-73.85520935,40.6860199
4451972,86-08,ATLANTIC AVENUE,11416,409,Queens,9020,5,-73.85520935,40.6860199
4462770,60-55,  55 STREET,11378,405,Queens,2641,17,-73.91036224,40.71503067
4462865,136-51,  35 AVENUE,11354,407,Queens,4951,68,-73.82940674,40.76535034
4463588,308,BEACH   66 STREET,11692,414,Queens,15910,21,-73.79469299,40.59144974
4518516,26-Feb,BEACH   98 STREET,11694,414,Queens,16153,12,-73.81977844,40.58538818
4530254,14-19,BEACH CHANNEL DRIVE,11691,414,Queens,15651,65,-73.75434113,40.60852051
4530462,142-47,HOR HARDING EXPRESSWAY SR NORT,11367,407,Queens,6410,3,-73.82367706,40.7421608
4531408,634,GRASSMERE TERRACE,11691,414,Queens,15762,45,-73.75771332,40.60100174
4531691,11-Nov,MC BRIDE STREET,11691,414,Queens,15714,105,-73.75792694,40.60467911
4532095,116-47,FARMERS BOULEVARD,11412,412,Queens,11059,109,-73.76215363,40.69226837
4532532,149,BEACH   26 STREET,11691,414,Queens,15818,162,-73.75930023,40.59360886
4532727,193-07,LINDEN BOULEVARD,11412,412,Queens,11064,62,-73.75834656,40.69300079
4532728,193-13,LINDEN BOULEVARD,11412,412,Queens,11064,87,-73.75813293,40.69306946
4532803,30-10,LEWMAY ROAD,11691,414,Queens,15808,157,-73.76313019,40.59424973
4532814,135,BEACH   26 STREET,11691,414,Queens,15818,72,-73.75921631,40.59317017
4532878,Oct-78,GIPSON STREET,11691,414,Queens,15714,52,-73.75881958,40.60451889
4533127,203,BEACH   28 STREET,11691,414,Queens,15804,26,-73.76130676,40.59503174
4533128,215,BEACH   28 STREET,11691,414,Queens,15804,119,-73.76138306,40.59537888
4537581,91-28, 175 STREET,11432,412,Queens,9809,77,-73.78620911,40.70838928
4538185,108-17,  43 AVENUE,11368,404,Queens,1998,57,-73.85713959,40.74909973
4539383,104-61,  39 AVENUE,11368,403,Queens,1775,49,-73.86004639,40.75152969
4548210,47-28A,  59 PLACE,11377,402,Queens,2320,46,-73.90579224,40.73934174
4617216,101-17,  37 AVENUE,11368,403,Queens,1742,27,-73.86573029,40.75315094
4620006,187-12,  90 AVENUE,11423,412,Queens,9911,24,-73.77308655,40.71212006
5000212,440,ST MARKS PLACE,10301,501,Staten Island,16,124,-74.07750702,40.63890839
5000446,411,WESTERVELT AVENUE,10301,501,Staten Island,25,5,-74.08157349,40.63814926
5000753,414,WESTERVELT AVENUE,10301,501,Staten Island,36,86,-74.08213806,40.6380806
5000899,28,LAYTON AVENUE,10301,501,Staten Island,41,15,-74.08421326,40.64149857
5000922,411,JERSEY STREET,10301,501,Staten Island,42,10,-74.08725739,40.63837051
5001216,73,YORK AVENUE,10301,501,Staten Island,52,48,-74.08799744,40.64485168
5006049,676,CARY AVENUE,10310,501,Staten Island,223,51,-74.1241684,40.63154984
5013689,115,WRIGHT STREET,10304,501,Staten Island,521,76,-74.07958984,40.62815094
5013752,83,THOMPSON STREET,10304,501,Staten Island,524,48,-74.07689667,40.62604904
5013778,91,BROAD STREET,10304,501,Staten Island,526,14,-74.07849121,40.62520981
5014286,77,OSGOOD AVENUE,10304,501,Staten Island,560,38,-74.08305359,40.61911011
5026617,244,HOOKER PLACE,10303,501,Staten Island,1154,12,-74.14733124,40.63196182
